<?xml version='1.0' encoding='UTF-8'?>
<gpx version="1.1" creator="https://www.komoot.de" xmlns="http://www.topografix.com/GPX/1/1" xmlns:xsi="http://www.w3.org/2001/XMLSchema-instance" xsi:schemaLocation="http://www.topografix.com/GPX/1/1 http://www.topografix.com/GPX/1/1/gpx.xsd">
  <metadata>
    <name>CTF Rockenberg 42km</name>
    <author>
      <link href="https://www.komoot.de">
        <text>komoot</text>
        <type>text/html</type>
      </link>
    </author>
  </metadata>
  <trk>
    <name>CTF Rockenberg 42km</name>
    <type>mtb</type>
    <trkseg>
      <trkpt lat="50.429031" lon="8.734764">
        <ele>145.606032</ele>
        <time>2023-07-29T13:50:42.494Z</time>
      </trkpt>
      <trkpt lat="50.428877" lon="8.734492">
        <ele>145.407163</ele>
        <time>2023-07-29T13:50:46.180Z</time>
      </trkpt>
      <trkpt lat="50.428745" lon="8.734283">
        <ele>145.094900</ele>
        <time>2023-07-29T13:50:49.213Z</time>
      </trkpt>
      <trkpt lat="50.428699" lon="8.734205">
        <ele>144.982120</ele>
        <time>2023-07-29T13:50:50.267Z</time>
      </trkpt>
      <trkpt lat="50.428177" lon="8.733156">
        <ele>143.409846</ele>
        <time>2023-07-29T13:51:03.546Z</time>
      </trkpt>
      <trkpt lat="50.428125" lon="8.732994">
        <ele>143.203275</ele>
        <time>2023-07-29T13:51:05.414Z</time>
      </trkpt>
      <trkpt lat="50.428081" lon="8.732950">
        <ele>143.133560</ele>
        <time>2023-07-29T13:51:06.197Z</time>
      </trkpt>
      <trkpt lat="50.428032" lon="8.732833">
        <ele>143.024935</ele>
        <time>2023-07-29T13:51:07.608Z</time>
      </trkpt>
      <trkpt lat="50.427826" lon="8.731901">
        <ele>142.448011</ele>
        <time>2023-07-29T13:51:18.367Z</time>
      </trkpt>
      <trkpt lat="50.427815" lon="8.731846">
        <ele>142.433100</ele>
        <time>2023-07-29T13:51:19.022Z</time>
      </trkpt>
      <trkpt lat="50.427769" lon="8.731611">
        <ele>142.371788</ele>
        <time>2023-07-29T13:51:21.915Z</time>
      </trkpt>
      <trkpt lat="50.427750" lon="8.731477">
        <ele>142.340043</ele>
        <time>2023-07-29T13:51:23.548Z</time>
      </trkpt>
      <trkpt lat="50.427727" lon="8.731324">
        <ele>142.314137</ele>
        <time>2023-07-29T13:51:25.403Z</time>
      </trkpt>
      <trkpt lat="50.427664" lon="8.730895">
        <ele>142.432159</ele>
        <time>2023-07-29T13:51:31.078Z</time>
      </trkpt>
      <trkpt lat="50.427607" lon="8.730263">
        <ele>142.826320</ele>
        <time>2023-07-29T13:51:40.889Z</time>
      </trkpt>
      <trkpt lat="50.427579" lon="8.729794">
        <ele>143.421862</ele>
        <time>2023-07-29T13:51:49.444Z</time>
      </trkpt>
      <trkpt lat="50.427531" lon="8.728912">
        <ele>145.091136</ele>
        <time>2023-07-29T13:52:08.855Z</time>
      </trkpt>
      <trkpt lat="50.427551" lon="8.728841">
        <ele>145.288582</ele>
        <time>2023-07-29T13:52:10.655Z</time>
      </trkpt>
      <trkpt lat="50.427501" lon="8.728775">
        <ele>145.558389</ele>
        <time>2023-07-29T13:52:13.201Z</time>
      </trkpt>
      <trkpt lat="50.427476" lon="8.727589">
        <ele>148.731792</ele>
        <time>2023-07-29T13:52:44.019Z</time>
      </trkpt>
      <trkpt lat="50.427471" lon="8.727213">
        <ele>149.918649</ele>
        <time>2023-07-29T13:52:54.518Z</time>
      </trkpt>
      <trkpt lat="50.427444" lon="8.726187">
        <ele>153.460541</ele>
        <time>2023-07-29T13:53:24.845Z</time>
      </trkpt>
      <trkpt lat="50.427097" lon="8.723746">
        <ele>160.700801</ele>
        <time>2023-07-29T13:54:31.788Z</time>
      </trkpt>
      <trkpt lat="50.425389" lon="8.716525">
        <ele>169.648546</ele>
        <time>2023-07-29T13:56:51.160Z</time>
      </trkpt>
      <trkpt lat="50.424881" lon="8.714202">
        <ele>167.774686</ele>
        <time>2023-07-29T13:57:16.841Z</time>
      </trkpt>
      <trkpt lat="50.424207" lon="8.711294">
        <ele>164.380586</ele>
        <time>2023-07-29T13:57:47.876Z</time>
      </trkpt>
      <trkpt lat="50.424010" lon="8.710312">
        <ele>163.923779</ele>
        <time>2023-07-29T13:57:59.332Z</time>
      </trkpt>
      <trkpt lat="50.423052" lon="8.700955">
        <ele>168.056484</ele>
        <time>2023-07-29T14:00:16.073Z</time>
      </trkpt>
      <trkpt lat="50.422778" lon="8.698166">
        <ele>170.991236</ele>
        <time>2023-07-29T14:01:05.328Z</time>
      </trkpt>
      <trkpt lat="50.422721" lon="8.697335">
        <ele>171.785699</ele>
        <time>2023-07-29T14:01:20.271Z</time>
      </trkpt>
      <trkpt lat="50.422327" lon="8.693720">
        <ele>174.692614</ele>
        <time>2023-07-29T14:02:21.896Z</time>
      </trkpt>
      <trkpt lat="50.421150" lon="8.687964">
        <ele>178.481642</ele>
        <time>2023-07-29T14:03:59.036Z</time>
      </trkpt>
      <trkpt lat="50.420569" lon="8.686846">
        <ele>178.997103</ele>
        <time>2023-07-29T14:04:19.955Z</time>
      </trkpt>
      <trkpt lat="50.419910" lon="8.685622">
        <ele>179.507364</ele>
        <time>2023-07-29T14:04:43.277Z</time>
      </trkpt>
      <trkpt lat="50.419685" lon="8.685287">
        <ele>179.691173</ele>
        <time>2023-07-29T14:04:49.974Z</time>
      </trkpt>
      <trkpt lat="50.419491" lon="8.685049">
        <ele>179.811302</ele>
        <time>2023-07-29T14:04:55.417Z</time>
      </trkpt>
      <trkpt lat="50.419405" lon="8.684903">
        <ele>179.882906</ele>
        <time>2023-07-29T14:04:58.045Z</time>
      </trkpt>
      <trkpt lat="50.419346" lon="8.684789">
        <ele>179.935065</ele>
        <time>2023-07-29T14:05:00.070Z</time>
      </trkpt>
      <trkpt lat="50.419351" lon="8.684702">
        <ele>179.965635</ele>
        <time>2023-07-29T14:05:01.362Z</time>
      </trkpt>
      <trkpt lat="50.419287" lon="8.684566">
        <ele>180.024803</ele>
        <time>2023-07-29T14:05:03.765Z</time>
      </trkpt>
      <trkpt lat="50.419181" lon="8.684568">
        <ele>180.073757</ele>
        <time>2023-07-29T14:05:05.980Z</time>
      </trkpt>
      <trkpt lat="50.419074" lon="8.684546">
        <ele>180.121969</ele>
        <time>2023-07-29T14:05:08.405Z</time>
      </trkpt>
      <trkpt lat="50.418948" lon="8.684526">
        <ele>180.194884</ele>
        <time>2023-07-29T14:05:11.304Z</time>
      </trkpt>
      <trkpt lat="50.418768" lon="8.684482">
        <ele>180.317326</ele>
        <time>2023-07-29T14:05:15.272Z</time>
      </trkpt>
      <trkpt lat="50.418551" lon="8.684450">
        <ele>180.492847</ele>
        <time>2023-07-29T14:05:20.348Z</time>
      </trkpt>
      <trkpt lat="50.418042" lon="8.684363">
        <ele>180.888543</ele>
        <time>2023-07-29T14:05:31.897Z</time>
      </trkpt>
      <trkpt lat="50.417871" lon="8.684273">
        <ele>181.039082</ele>
        <time>2023-07-29T14:05:36.166Z</time>
      </trkpt>
      <trkpt lat="50.418195" lon="8.683009">
        <ele>182.002540</ele>
        <time>2023-07-29T14:05:58.393Z</time>
      </trkpt>
      <trkpt lat="50.418346" lon="8.682407">
        <ele>182.508015</ele>
        <time>2023-07-29T14:06:09.598Z</time>
      </trkpt>
      <trkpt lat="50.418371" lon="8.682309">
        <ele>182.610634</ele>
        <time>2023-07-29T14:06:11.457Z</time>
      </trkpt>
      <trkpt lat="50.418843" lon="8.681481">
        <ele>183.699416</ele>
        <time>2023-07-29T14:06:31.255Z</time>
      </trkpt>
      <trkpt lat="50.419228" lon="8.680796">
        <ele>184.598937</ele>
        <time>2023-07-29T14:06:47.465Z</time>
      </trkpt>
      <trkpt lat="50.419185" lon="8.680600">
        <ele>184.798481</ele>
        <time>2023-07-29T14:06:50.998Z</time>
      </trkpt>
      <trkpt lat="50.419065" lon="8.679673">
        <ele>185.667417</ele>
        <time>2023-07-29T14:07:07.527Z</time>
      </trkpt>
      <trkpt lat="50.419046" lon="8.678860">
        <ele>186.176088</ele>
        <time>2023-07-29T14:07:20.417Z</time>
      </trkpt>
      <trkpt lat="50.418990" lon="8.677666">
        <ele>186.589205</ele>
        <time>2023-07-29T14:07:37.788Z</time>
      </trkpt>
      <trkpt lat="50.418994" lon="8.676574">
        <ele>186.710784</ele>
        <time>2023-07-29T14:07:52.313Z</time>
      </trkpt>
      <trkpt lat="50.419040" lon="8.674703">
        <ele>187.270539</ele>
        <time>2023-07-29T14:08:19.042Z</time>
      </trkpt>
      <trkpt lat="50.419103" lon="8.673506">
        <ele>188.213854</ele>
        <time>2023-07-29T14:08:39.639Z</time>
      </trkpt>
      <trkpt lat="50.419170" lon="8.673236">
        <ele>188.490295</ele>
        <time>2023-07-29T14:08:44.808Z</time>
      </trkpt>
      <trkpt lat="50.419454" lon="8.672604">
        <ele>189.208068</ele>
        <time>2023-07-29T14:08:58.318Z</time>
      </trkpt>
      <trkpt lat="50.419501" lon="8.672321">
        <ele>189.484010</ele>
        <time>2023-07-29T14:09:03.544Z</time>
      </trkpt>
      <trkpt lat="50.419498" lon="8.672185">
        <ele>189.613234</ele>
        <time>2023-07-29T14:09:05.991Z</time>
      </trkpt>
      <trkpt lat="50.419460" lon="8.671802">
        <ele>189.997533</ele>
        <time>2023-07-29T14:09:12.632Z</time>
      </trkpt>
      <trkpt lat="50.419453" lon="8.671686">
        <ele>190.121652</ele>
        <time>2023-07-29T14:09:14.614Z</time>
      </trkpt>
      <trkpt lat="50.419460" lon="8.671437">
        <ele>190.383769</ele>
        <time>2023-07-29T14:09:18.904Z</time>
      </trkpt>
      <trkpt lat="50.419515" lon="8.671139">
        <ele>190.694258</ele>
        <time>2023-07-29T14:09:24.281Z</time>
      </trkpt>
      <trkpt lat="50.419816" lon="8.670071">
        <ele>191.705721</ele>
        <time>2023-07-29T14:09:43.833Z</time>
      </trkpt>
      <trkpt lat="50.421457" lon="8.664661">
        <ele>197.178592</ele>
        <time>2023-07-29T14:11:23.915Z</time>
      </trkpt>
      <trkpt lat="50.422091" lon="8.662528">
        <ele>200.824406</ele>
        <time>2023-07-29T14:12:11.189Z</time>
      </trkpt>
      <trkpt lat="50.422744" lon="8.660335">
        <ele>205.906506</ele>
        <time>2023-07-29T14:13:05.922Z</time>
      </trkpt>
      <trkpt lat="50.423154" lon="8.658990">
        <ele>209.204878</ele>
        <time>2023-07-29T14:13:40.811Z</time>
      </trkpt>
      <trkpt lat="50.423361" lon="8.658326">
        <ele>210.905874</ele>
        <time>2023-07-29T14:13:58.434Z</time>
      </trkpt>
      <trkpt lat="50.423553" lon="8.657186">
        <ele>213.670048</ele>
        <time>2023-07-29T14:14:26.638Z</time>
      </trkpt>
      <trkpt lat="50.423635" lon="8.656560">
        <ele>215.018109</ele>
        <time>2023-07-29T14:14:41.157Z</time>
      </trkpt>
      <trkpt lat="50.423677" lon="8.656436">
        <ele>215.324369</ele>
        <time>2023-07-29T14:14:44.495Z</time>
      </trkpt>
      <trkpt lat="50.423755" lon="8.656429">
        <ele>215.593275</ele>
        <time>2023-07-29T14:14:47.362Z</time>
      </trkpt>
      <trkpt lat="50.423801" lon="8.656387">
        <ele>215.779481</ele>
        <time>2023-07-29T14:14:49.343Z</time>
      </trkpt>
      <trkpt lat="50.423874" lon="8.656473">
        <ele>216.098852</ele>
        <time>2023-07-29T14:14:53.498Z</time>
      </trkpt>
      <trkpt lat="50.423958" lon="8.656462">
        <ele>216.388788</ele>
        <time>2023-07-29T14:14:57.745Z</time>
      </trkpt>
      <trkpt lat="50.423957" lon="8.656069">
        <ele>217.239864</ele>
        <time>2023-07-29T14:15:09.974Z</time>
      </trkpt>
      <trkpt lat="50.423979" lon="8.655041">
        <ele>219.821270</ele>
        <time>2023-07-29T14:15:43.669Z</time>
      </trkpt>
      <trkpt lat="50.423918" lon="8.655033">
        <ele>220.125441</ele>
        <time>2023-07-29T14:15:45.902Z</time>
      </trkpt>
      <trkpt lat="50.423950" lon="8.654090">
        <ele>223.248259</ele>
        <time>2023-07-29T14:16:13.617Z</time>
      </trkpt>
      <trkpt lat="50.423921" lon="8.653436">
        <ele>226.006094</ele>
        <time>2023-07-29T14:16:35.322Z</time>
      </trkpt>
      <trkpt lat="50.424091" lon="8.653376">
        <ele>227.214129</ele>
        <time>2023-07-29T14:16:44.955Z</time>
      </trkpt>
      <trkpt lat="50.424177" lon="8.653028">
        <ele>228.904343</ele>
        <time>2023-07-29T14:17:00.861Z</time>
      </trkpt>
      <trkpt lat="50.424369" lon="8.652658">
        <ele>231.112857</ele>
        <time>2023-07-29T14:17:21.943Z</time>
      </trkpt>
      <trkpt lat="50.424542" lon="8.652372">
        <ele>233.018673</ele>
        <time>2023-07-29T14:17:39.511Z</time>
      </trkpt>
      <trkpt lat="50.424663" lon="8.652027">
        <ele>234.954284</ele>
        <time>2023-07-29T14:17:57.064Z</time>
      </trkpt>
      <trkpt lat="50.424818" lon="8.651834">
        <ele>236.430034</ele>
        <time>2023-07-29T14:18:08.688Z</time>
      </trkpt>
      <trkpt lat="50.424947" lon="8.651302">
        <ele>239.071323</ele>
        <time>2023-07-29T14:18:30.522Z</time>
      </trkpt>
      <trkpt lat="50.425519" lon="8.644892">
        <ele>257.440810</ele>
        <time>2023-07-29T14:21:32.184Z</time>
      </trkpt>
      <trkpt lat="50.423523" lon="8.646535">
        <ele>248.826271</ele>
        <time>2023-07-29T14:22:07.328Z</time>
      </trkpt>
      <trkpt lat="50.424132" lon="8.640116">
        <ele>262.052233</ele>
        <time>2023-07-29T14:24:43.711Z</time>
      </trkpt>
      <trkpt lat="50.424355" lon="8.637740">
        <ele>268.484346</ele>
        <time>2023-07-29T14:25:48.817Z</time>
      </trkpt>
      <trkpt lat="50.424391" lon="8.637348">
        <ele>269.524524</ele>
        <time>2023-07-29T14:25:59.516Z</time>
      </trkpt>
      <trkpt lat="50.424250" lon="8.636822">
        <ele>271.125240</ele>
        <time>2023-07-29T14:26:15.408Z</time>
      </trkpt>
      <trkpt lat="50.423947" lon="8.636586">
        <ele>272.797193</ele>
        <time>2023-07-29T14:26:30.781Z</time>
      </trkpt>
      <trkpt lat="50.423796" lon="8.636213">
        <ele>274.250881</ele>
        <time>2023-07-29T14:26:43.831Z</time>
      </trkpt>
      <trkpt lat="50.425013" lon="8.635256">
        <ele>282.975547</ele>
        <time>2023-07-29T14:27:56.641Z</time>
      </trkpt>
      <trkpt lat="50.425737" lon="8.634697">
        <ele>290.002970</ele>
        <time>2023-07-29T14:28:49.620Z</time>
      </trkpt>
      <trkpt lat="50.425997" lon="8.634524">
        <ele>292.500146</ele>
        <time>2023-07-29T14:29:08.190Z</time>
      </trkpt>
      <trkpt lat="50.426310" lon="8.634278">
        <ele>295.501536</ele>
        <time>2023-07-29T14:29:31.205Z</time>
      </trkpt>
      <trkpt lat="50.427662" lon="8.633214">
        <ele>307.080119</ele>
        <time>2023-07-29T14:31:00.755Z</time>
      </trkpt>
      <trkpt lat="50.427815" lon="8.633100">
        <ele>308.283304</ele>
        <time>2023-07-29T14:31:10.354Z</time>
      </trkpt>
      <trkpt lat="50.427815" lon="8.632612">
        <ele>310.413804</ele>
        <time>2023-07-29T14:31:30.850Z</time>
      </trkpt>
      <trkpt lat="50.427846" lon="8.632125">
        <ele>312.613983</ele>
        <time>2023-07-29T14:31:51.836Z</time>
      </trkpt>
      <trkpt lat="50.427936" lon="8.631697">
        <ele>314.718789</ele>
        <time>2023-07-29T14:32:11.604Z</time>
      </trkpt>
      <trkpt lat="50.428214" lon="8.631071">
        <ele>318.497963</ele>
        <time>2023-07-29T14:32:46.101Z</time>
      </trkpt>
      <trkpt lat="50.428328" lon="8.630641">
        <ele>320.839582</ele>
        <time>2023-07-29T14:33:07.043Z</time>
      </trkpt>
      <trkpt lat="50.428443" lon="8.630384">
        <ele>322.494197</ele>
        <time>2023-07-29T14:33:21.727Z</time>
      </trkpt>
      <trkpt lat="50.428592" lon="8.630165">
        <ele>324.229932</ele>
        <time>2023-07-29T14:33:36.684Z</time>
      </trkpt>
      <trkpt lat="50.428641" lon="8.629475">
        <ele>328.204430</ele>
        <time>2023-07-29T14:34:10.871Z</time>
      </trkpt>
      <trkpt lat="50.428651" lon="8.629335">
        <ele>329.034687</ele>
        <time>2023-07-29T14:34:17.910Z</time>
      </trkpt>
      <trkpt lat="50.428721" lon="8.628856">
        <ele>331.935760</ele>
        <time>2023-07-29T14:34:42.640Z</time>
      </trkpt>
      <trkpt lat="50.428966" lon="8.626028">
        <ele>345.904464</ele>
        <time>2023-07-29T14:36:50.663Z</time>
      </trkpt>
      <trkpt lat="50.429036" lon="8.624909">
        <ele>349.094249</ele>
        <time>2023-07-29T14:37:29.599Z</time>
      </trkpt>
      <trkpt lat="50.429191" lon="8.623390">
        <ele>351.491796</ele>
        <time>2023-07-29T14:38:12.553Z</time>
      </trkpt>
      <trkpt lat="50.429288" lon="8.622154">
        <ele>351.981059</ele>
        <time>2023-07-29T14:38:39.952Z</time>
      </trkpt>
      <trkpt lat="50.429446" lon="8.621970">
        <ele>351.987415</ele>
        <time>2023-07-29T14:38:46.270Z</time>
      </trkpt>
      <trkpt lat="50.429621" lon="8.621661">
        <ele>351.890208</ele>
        <time>2023-07-29T14:38:54.325Z</time>
      </trkpt>
      <trkpt lat="50.429807" lon="8.621257">
        <ele>351.681334</ele>
        <time>2023-07-29T14:39:03.786Z</time>
      </trkpt>
      <trkpt lat="50.430048" lon="8.620948">
        <ele>351.425083</ele>
        <time>2023-07-29T14:39:12.963Z</time>
      </trkpt>
      <trkpt lat="50.431250" lon="8.620030">
        <ele>351.126583</ele>
        <time>2023-07-29T14:39:54.470Z</time>
      </trkpt>
      <trkpt lat="50.432809" lon="8.618940">
        <ele>351.856503</ele>
        <time>2023-07-29T14:40:52.586Z</time>
      </trkpt>
      <trkpt lat="50.432850" lon="8.617404">
        <ele>351.866030</ele>
        <time>2023-07-29T14:41:13.520Z</time>
      </trkpt>
      <trkpt lat="50.432800" lon="8.617218">
        <ele>351.744017</ele>
        <time>2023-07-29T14:41:16.016Z</time>
      </trkpt>
      <trkpt lat="50.432642" lon="8.616623">
        <ele>351.022460</ele>
        <time>2023-07-29T14:41:23.437Z</time>
      </trkpt>
      <trkpt lat="50.431761" lon="8.617239">
        <ele>348.039881</ele>
        <time>2023-07-29T14:41:48.444Z</time>
      </trkpt>
      <trkpt lat="50.430626" lon="8.617941">
        <ele>343.058698</ele>
        <time>2023-07-29T14:42:18.663Z</time>
      </trkpt>
      <trkpt lat="50.430270" lon="8.618267">
        <ele>342.124005</ele>
        <time>2023-07-29T14:42:29.637Z</time>
      </trkpt>
      <trkpt lat="50.429567" lon="8.618768">
        <ele>342.437831</ele>
        <time>2023-07-29T14:42:55.537Z</time>
      </trkpt>
      <trkpt lat="50.429634" lon="8.617962">
        <ele>344.899994</ele>
        <time>2023-07-29T14:43:24.633Z</time>
      </trkpt>
      <trkpt lat="50.429704" lon="8.617115">
        <ele>348.508581</ele>
        <time>2023-07-29T14:44:00.577Z</time>
      </trkpt>
      <trkpt lat="50.429793" lon="8.615384">
        <ele>356.195131</ele>
        <time>2023-07-29T14:45:14.829Z</time>
      </trkpt>
      <trkpt lat="50.428799" lon="8.616190">
        <ele>361.080357</ele>
        <time>2023-07-29T14:46:15.501Z</time>
      </trkpt>
      <trkpt lat="50.427833" lon="8.617106">
        <ele>360.397998</ele>
        <time>2023-07-29T14:46:49.332Z</time>
      </trkpt>
      <trkpt lat="50.427146" lon="8.617690">
        <ele>357.818970</ele>
        <time>2023-07-29T14:47:09.378Z</time>
      </trkpt>
      <trkpt lat="50.425838" lon="8.618653">
        <ele>349.628942</ele>
        <time>2023-07-29T14:47:43.394Z</time>
      </trkpt>
      <trkpt lat="50.425830" lon="8.618654">
        <ele>349.579423</ele>
        <time>2023-07-29T14:47:43.586Z</time>
      </trkpt>
      <trkpt lat="50.425726" lon="8.618669">
        <ele>348.905455</ele>
        <time>2023-07-29T14:47:45.953Z</time>
      </trkpt>
      <trkpt lat="50.425280" lon="8.618871">
        <ele>345.824043</ele>
        <time>2023-07-29T14:47:56.631Z</time>
      </trkpt>
      <trkpt lat="50.425140" lon="8.618889">
        <ele>344.932434</ele>
        <time>2023-07-29T14:47:59.891Z</time>
      </trkpt>
      <trkpt lat="50.424906" lon="8.618830">
        <ele>343.619273</ele>
        <time>2023-07-29T14:48:05.488Z</time>
      </trkpt>
      <trkpt lat="50.424467" lon="8.619194">
        <ele>341.238642</ele>
        <time>2023-07-29T14:48:17.507Z</time>
      </trkpt>
      <trkpt lat="50.423762" lon="8.619738">
        <ele>338.068021</ele>
        <time>2023-07-29T14:48:37.064Z</time>
      </trkpt>
      <trkpt lat="50.423551" lon="8.619831">
        <ele>337.477675</ele>
        <time>2023-07-29T14:48:42.805Z</time>
      </trkpt>
      <trkpt lat="50.423241" lon="8.619882">
        <ele>337.025768</ele>
        <time>2023-07-29T14:48:48.215Z</time>
      </trkpt>
      <trkpt lat="50.423040" lon="8.619984">
        <ele>336.891740</ele>
        <time>2023-07-29T14:48:52.474Z</time>
      </trkpt>
      <trkpt lat="50.422444" lon="8.620394">
        <ele>336.360520</ele>
        <time>2023-07-29T14:49:04.370Z</time>
      </trkpt>
      <trkpt lat="50.422114" lon="8.620371">
        <ele>335.722294</ele>
        <time>2023-07-29T14:49:09.866Z</time>
      </trkpt>
      <trkpt lat="50.421619" lon="8.620530">
        <ele>334.236549</ele>
        <time>2023-07-29T14:49:17.642Z</time>
      </trkpt>
      <trkpt lat="50.421552" lon="8.620613">
        <ele>333.943063</ele>
        <time>2023-07-29T14:49:18.893Z</time>
      </trkpt>
      <trkpt lat="50.420929" lon="8.621386">
        <ele>331.622497</ele>
        <time>2023-07-29T14:49:31.156Z</time>
      </trkpt>
      <trkpt lat="50.420862" lon="8.621514">
        <ele>331.415655</ele>
        <time>2023-07-29T14:49:33.103Z</time>
      </trkpt>
      <trkpt lat="50.420829" lon="8.621788">
        <ele>331.263482</ele>
        <time>2023-07-29T14:49:36.398Z</time>
      </trkpt>
      <trkpt lat="50.420396" lon="8.622172">
        <ele>330.574969</ele>
        <time>2023-07-29T14:49:44.927Z</time>
      </trkpt>
      <trkpt lat="50.420189" lon="8.622295">
        <ele>330.153771</ele>
        <time>2023-07-29T14:49:48.557Z</time>
      </trkpt>
      <trkpt lat="50.420214" lon="8.621974">
        <ele>329.992546</ele>
        <time>2023-07-29T14:49:52.398Z</time>
      </trkpt>
      <trkpt lat="50.420194" lon="8.621792">
        <ele>330.013348</ele>
        <time>2023-07-29T14:49:54.636Z</time>
      </trkpt>
      <trkpt lat="50.419420" lon="8.621506">
        <ele>330.454759</ele>
        <time>2023-07-29T14:50:22.215Z</time>
      </trkpt>
      <trkpt lat="50.418946" lon="8.621419">
        <ele>331.438222</ele>
        <time>2023-07-29T14:50:42.892Z</time>
      </trkpt>
      <trkpt lat="50.418503" lon="8.621937">
        <ele>331.673083</ele>
        <time>2023-07-29T14:51:02.137Z</time>
      </trkpt>
      <trkpt lat="50.418476" lon="8.622139">
        <ele>331.550722</ele>
        <time>2023-07-29T14:51:05.858Z</time>
      </trkpt>
      <trkpt lat="50.418073" lon="8.622710">
        <ele>330.090345</ele>
        <time>2023-07-29T14:51:20.130Z</time>
      </trkpt>
      <trkpt lat="50.417392" lon="8.622749">
        <ele>328.134373</ele>
        <time>2023-07-29T14:51:37.847Z</time>
      </trkpt>
      <trkpt lat="50.417072" lon="8.622952">
        <ele>327.331002</ele>
        <time>2023-07-29T14:51:47.197Z</time>
      </trkpt>
      <trkpt lat="50.416785" lon="8.623252">
        <ele>326.890472</ele>
        <time>2023-07-29T14:51:56.962Z</time>
      </trkpt>
      <trkpt lat="50.415939" lon="8.623513">
        <ele>327.131181</ele>
        <time>2023-07-29T14:52:25.388Z</time>
      </trkpt>
      <trkpt lat="50.415643" lon="8.623660">
        <ele>327.806442</ele>
        <time>2023-07-29T14:52:39.484Z</time>
      </trkpt>
      <trkpt lat="50.415499" lon="8.623837">
        <ele>328.354298</ele>
        <time>2023-07-29T14:52:47.479Z</time>
      </trkpt>
      <trkpt lat="50.415268" lon="8.624349">
        <ele>329.782565</ele>
        <time>2023-07-29T14:53:07.946Z</time>
      </trkpt>
      <trkpt lat="50.414734" lon="8.625012">
        <ele>332.245211</ele>
        <time>2023-07-29T14:53:41.501Z</time>
      </trkpt>
      <trkpt lat="50.414660" lon="8.624891">
        <ele>332.668300</ele>
        <time>2023-07-29T14:53:46.463Z</time>
      </trkpt>
      <trkpt lat="50.414519" lon="8.624926">
        <ele>333.203623</ele>
        <time>2023-07-29T14:53:51.892Z</time>
      </trkpt>
      <trkpt lat="50.414328" lon="8.625216">
        <ele>334.220474</ele>
        <time>2023-07-29T14:54:02.443Z</time>
      </trkpt>
      <trkpt lat="50.413860" lon="8.625664">
        <ele>336.541646</ele>
        <time>2023-07-29T14:54:25.887Z</time>
      </trkpt>
      <trkpt lat="50.412960" lon="8.625930">
        <ele>341.177614</ele>
        <time>2023-07-29T14:55:08.520Z</time>
      </trkpt>
      <trkpt lat="50.412860" lon="8.625930">
        <ele>341.799966</ele>
        <time>2023-07-29T14:55:13.572Z</time>
      </trkpt>
      <trkpt lat="50.412845" lon="8.625855">
        <ele>342.111718</ele>
        <time>2023-07-29T14:55:16.697Z</time>
      </trkpt>
      <trkpt lat="50.413210" lon="8.625670">
        <ele>344.914323</ele>
        <time>2023-07-29T14:55:38.751Z</time>
      </trkpt>
      <trkpt lat="50.413806" lon="8.624982">
        <ele>350.456906</ele>
        <time>2023-07-29T14:56:22.836Z</time>
      </trkpt>
      <trkpt lat="50.414129" lon="8.623927">
        <ele>355.223842</ele>
        <time>2023-07-29T14:57:02.319Z</time>
      </trkpt>
      <trkpt lat="50.414135" lon="8.623788">
        <ele>355.803172</ele>
        <time>2023-07-29T14:57:07.389Z</time>
      </trkpt>
      <trkpt lat="50.414089" lon="8.623795">
        <ele>356.104756</ele>
        <time>2023-07-29T14:57:10.602Z</time>
      </trkpt>
      <trkpt lat="50.414060" lon="8.623840">
        <ele>356.359956</ele>
        <time>2023-07-29T14:57:12.835Z</time>
      </trkpt>
      <trkpt lat="50.413990" lon="8.624110">
        <ele>357.257440</ele>
        <time>2023-07-29T14:57:22.931Z</time>
      </trkpt>
      <trkpt lat="50.413830" lon="8.624420">
        <ele>358.610255</ele>
        <time>2023-07-29T14:57:38.166Z</time>
      </trkpt>
      <trkpt lat="50.413770" lon="8.624490">
        <ele>358.904687</ele>
        <time>2023-07-29T14:57:41.602Z</time>
      </trkpt>
      <trkpt lat="50.413495" lon="8.624587">
        <ele>359.843808</ele>
        <time>2023-07-29T14:57:55.910Z</time>
      </trkpt>
      <trkpt lat="50.413218" lon="8.624971">
        <ele>360.323202</ele>
        <time>2023-07-29T14:58:10.012Z</time>
      </trkpt>
      <trkpt lat="50.413068" lon="8.625047">
        <ele>360.294861</ele>
        <time>2023-07-29T14:58:14.695Z</time>
      </trkpt>
      <trkpt lat="50.412886" lon="8.625017">
        <ele>360.108745</ele>
        <time>2023-07-29T14:58:20.118Z</time>
      </trkpt>
      <trkpt lat="50.412561" lon="8.625095">
        <ele>359.448186</ele>
        <time>2023-07-29T14:58:29.014Z</time>
      </trkpt>
      <trkpt lat="50.412533" lon="8.625051">
        <ele>359.375734</ele>
        <time>2023-07-29T14:58:30.384Z</time>
      </trkpt>
      <trkpt lat="50.412293" lon="8.625161">
        <ele>358.964541</ele>
        <time>2023-07-29T14:58:37.251Z</time>
      </trkpt>
      <trkpt lat="50.411623" lon="8.625467">
        <ele>358.032921</ele>
        <time>2023-07-29T14:58:57.236Z</time>
      </trkpt>
      <trkpt lat="50.411195" lon="8.625358">
        <ele>357.798457</ele>
        <time>2023-07-29T14:59:05.786Z</time>
      </trkpt>
      <trkpt lat="50.411026" lon="8.625206">
        <ele>358.061970</ele>
        <time>2023-07-29T14:59:10.745Z</time>
      </trkpt>
      <trkpt lat="50.410776" lon="8.624452">
        <ele>359.892385</ele>
        <time>2023-07-29T14:59:31.307Z</time>
      </trkpt>
      <trkpt lat="50.410550" lon="8.623640">
        <ele>364.126761</ele>
        <time>2023-07-29T15:00:04.793Z</time>
      </trkpt>
      <trkpt lat="50.410560" lon="8.623400">
        <ele>365.559333</ele>
        <time>2023-07-29T15:00:17.226Z</time>
      </trkpt>
      <trkpt lat="50.411150" lon="8.622200">
        <ele>376.950578</ele>
        <time>2023-07-29T15:01:44.775Z</time>
      </trkpt>
      <trkpt lat="50.411448" lon="8.621084">
        <ele>387.631319</ele>
        <time>2023-07-29T15:03:04.074Z</time>
      </trkpt>
      <trkpt lat="50.412081" lon="8.619603">
        <ele>402.112938</ele>
        <time>2023-07-29T15:04:52.864Z</time>
      </trkpt>
      <trkpt lat="50.412099" lon="8.619464">
        <ele>403.154528</ele>
        <time>2023-07-29T15:05:00.771Z</time>
      </trkpt>
      <trkpt lat="50.411860" lon="8.619080">
        <ele>406.644972</ele>
        <time>2023-07-29T15:05:28.997Z</time>
      </trkpt>
      <trkpt lat="50.411520" lon="8.618770">
        <ele>410.235865</ele>
        <time>2023-07-29T15:05:59.428Z</time>
      </trkpt>
      <trkpt lat="50.411220" lon="8.618770">
        <ele>412.704095</ele>
        <time>2023-07-29T15:06:21.272Z</time>
      </trkpt>
      <trkpt lat="50.411040" lon="8.618840">
        <ele>414.143121</ele>
        <time>2023-07-29T15:06:34.424Z</time>
      </trkpt>
      <trkpt lat="50.410650" lon="8.618720">
        <ele>416.952243</ele>
        <time>2023-07-29T15:07:01.353Z</time>
      </trkpt>
      <trkpt lat="50.410260" lon="8.618696">
        <ele>419.330950</ele>
        <time>2023-07-29T15:07:25.488Z</time>
      </trkpt>
      <trkpt lat="50.409550" lon="8.618580">
        <ele>422.553882</ele>
        <time>2023-07-29T15:08:03.758Z</time>
      </trkpt>
      <trkpt lat="50.408837" lon="8.617877">
        <ele>426.918468</ele>
        <time>2023-07-29T15:08:52.621Z</time>
      </trkpt>
      <trkpt lat="50.408613" lon="8.617680">
        <ele>428.430645</ele>
        <time>2023-07-29T15:09:08.447Z</time>
      </trkpt>
      <trkpt lat="50.408518" lon="8.617497">
        <ele>429.393508</ele>
        <time>2023-07-29T15:09:18.077Z</time>
      </trkpt>
      <trkpt lat="50.408423" lon="8.617103">
        <ele>431.110898</ele>
        <time>2023-07-29T15:09:35.276Z</time>
      </trkpt>
      <trkpt lat="50.408551" lon="8.615900">
        <ele>436.304311</ele>
        <time>2023-07-29T15:10:25.916Z</time>
      </trkpt>
      <trkpt lat="50.408519" lon="8.615509">
        <ele>438.074003</ele>
        <time>2023-07-29T15:10:42.267Z</time>
      </trkpt>
      <trkpt lat="50.408392" lon="8.614132">
        <ele>445.184469</ele>
        <time>2023-07-29T15:11:46.443Z</time>
      </trkpt>
      <trkpt lat="50.408422" lon="8.613634">
        <ele>447.693370</ele>
        <time>2023-07-29T15:12:09.331Z</time>
      </trkpt>
      <trkpt lat="50.408445" lon="8.613245">
        <ele>449.608707</ele>
        <time>2023-07-29T15:12:26.654Z</time>
      </trkpt>
      <trkpt lat="50.408899" lon="8.613552">
        <ele>453.483072</ele>
        <time>2023-07-29T15:13:01.939Z</time>
      </trkpt>
      <trkpt lat="50.409271" lon="8.613952">
        <ele>456.912366</ele>
        <time>2023-07-29T15:13:33.461Z</time>
      </trkpt>
      <trkpt lat="50.409622" lon="8.614146">
        <ele>459.784912</ele>
        <time>2023-07-29T15:13:59.553Z</time>
      </trkpt>
      <trkpt lat="50.410072" lon="8.614390">
        <ele>463.268907</ele>
        <time>2023-07-29T15:14:32.337Z</time>
      </trkpt>
      <trkpt lat="50.410202" lon="8.614521">
        <ele>464.242266</ele>
        <time>2023-07-29T15:14:42.205Z</time>
      </trkpt>
      <trkpt lat="50.410292" lon="8.614703">
        <ele>465.084385</ele>
        <time>2023-07-29T15:14:51.018Z</time>
      </trkpt>
      <trkpt lat="50.410365" lon="8.615012">
        <ele>466.173762</ele>
        <time>2023-07-29T15:15:03.116Z</time>
      </trkpt>
      <trkpt lat="50.410403" lon="8.615085">
        <ele>466.467177</ele>
        <time>2023-07-29T15:15:06.405Z</time>
      </trkpt>
      <trkpt lat="50.410446" lon="8.615168">
        <ele>466.800152</ele>
        <time>2023-07-29T15:15:10.087Z</time>
      </trkpt>
      <trkpt lat="50.410498" lon="8.615265">
        <ele>467.136999</ele>
        <time>2023-07-29T15:15:13.543Z</time>
      </trkpt>
      <trkpt lat="50.410758" lon="8.615547">
        <ele>468.293510</ele>
        <time>2023-07-29T15:15:26.258Z</time>
      </trkpt>
      <trkpt lat="50.410943" lon="8.615698">
        <ele>468.966436</ele>
        <time>2023-07-29T15:15:34.113Z</time>
      </trkpt>
      <trkpt lat="50.410966" lon="8.615723">
        <ele>469.053253</ele>
        <time>2023-07-29T15:15:35.088Z</time>
      </trkpt>
      <trkpt lat="50.411436" lon="8.616219">
        <ele>470.488664</ele>
        <time>2023-07-29T15:15:54.330Z</time>
      </trkpt>
      <trkpt lat="50.411593" lon="8.616328">
        <ele>470.878744</ele>
        <time>2023-07-29T15:15:59.921Z</time>
      </trkpt>
      <trkpt lat="50.411614" lon="8.616332">
        <ele>470.917454</ele>
        <time>2023-07-29T15:16:00.551Z</time>
      </trkpt>
      <trkpt lat="50.411738" lon="8.616354">
        <ele>471.138935</ele>
        <time>2023-07-29T15:16:04.281Z</time>
      </trkpt>
      <trkpt lat="50.411924" lon="8.616303">
        <ele>471.364187</ele>
        <time>2023-07-29T15:16:09.689Z</time>
      </trkpt>
      <trkpt lat="50.412125" lon="8.616153">
        <ele>471.404745</ele>
        <time>2023-07-29T15:16:14.818Z</time>
      </trkpt>
      <trkpt lat="50.412583" lon="8.615682">
        <ele>471.045916</ele>
        <time>2023-07-29T15:16:25.449Z</time>
      </trkpt>
      <trkpt lat="50.412751" lon="8.615583">
        <ele>470.736885</ele>
        <time>2023-07-29T15:16:28.656Z</time>
      </trkpt>
      <trkpt lat="50.412659" lon="8.615600">
        <ele>470.561302</ele>
        <time>2023-07-29T15:16:31.265Z</time>
      </trkpt>
      <trkpt lat="50.412751" lon="8.615583">
        <ele>470.367797</ele>
        <time>2023-07-29T15:16:33.755Z</time>
      </trkpt>
      <trkpt lat="50.412835" lon="8.615529">
        <ele>470.178179</ele>
        <time>2023-07-29T15:16:35.330Z</time>
      </trkpt>
      <trkpt lat="50.413124" lon="8.615579">
        <ele>469.359281</ele>
        <time>2023-07-29T15:16:40.191Z</time>
      </trkpt>
      <trkpt lat="50.413299" lon="8.615586">
        <ele>468.755244</ele>
        <time>2023-07-29T15:16:43.015Z</time>
      </trkpt>
      <trkpt lat="50.414776" lon="8.615639">
        <ele>461.405720</ele>
        <time>2023-07-29T15:17:05.390Z</time>
      </trkpt>
      <trkpt lat="50.414951" lon="8.615724">
        <ele>460.527261</ele>
        <time>2023-07-29T15:17:08.203Z</time>
      </trkpt>
      <trkpt lat="50.415048" lon="8.615816">
        <ele>460.004872</ele>
        <time>2023-07-29T15:17:10.969Z</time>
      </trkpt>
      <trkpt lat="50.415181" lon="8.615861">
        <ele>459.430453</ele>
        <time>2023-07-29T15:17:14.317Z</time>
      </trkpt>
      <trkpt lat="50.415315" lon="8.615860">
        <ele>458.867839</ele>
        <time>2023-07-29T15:17:17.679Z</time>
      </trkpt>
      <trkpt lat="50.416376" lon="8.615603">
        <ele>453.973035</ele>
        <time>2023-07-29T15:17:43.931Z</time>
      </trkpt>
      <trkpt lat="50.416816" lon="8.615187">
        <ele>451.222414</ele>
        <time>2023-07-29T15:17:56.242Z</time>
      </trkpt>
      <trkpt lat="50.418435" lon="8.613637">
        <ele>438.285486</ele>
        <time>2023-07-29T15:18:39.486Z</time>
      </trkpt>
      <trkpt lat="50.419825" lon="8.612315">
        <ele>429.584752</ele>
        <time>2023-07-29T15:19:18.251Z</time>
      </trkpt>
      <trkpt lat="50.420103" lon="8.612048">
        <ele>428.388322</ele>
        <time>2023-07-29T15:19:26.526Z</time>
      </trkpt>
      <trkpt lat="50.420172" lon="8.611979">
        <ele>428.098684</ele>
        <time>2023-07-29T15:19:28.617Z</time>
      </trkpt>
      <trkpt lat="50.420369" lon="8.611809">
        <ele>427.293404</ele>
        <time>2023-07-29T15:19:34.312Z</time>
      </trkpt>
      <trkpt lat="50.420296" lon="8.612351">
        <ele>426.013430</ele>
        <time>2023-07-29T15:19:39.991Z</time>
      </trkpt>
      <trkpt lat="50.421674" lon="8.613095">
        <ele>421.008028</ele>
        <time>2023-07-29T15:20:17.200Z</time>
      </trkpt>
      <trkpt lat="50.421762" lon="8.613048">
        <ele>420.693715</ele>
        <time>2023-07-29T15:20:19.586Z</time>
      </trkpt>
      <trkpt lat="50.422222" lon="8.612647">
        <ele>418.925299</ele>
        <time>2023-07-29T15:20:32.971Z</time>
      </trkpt>
      <trkpt lat="50.422542" lon="8.612480">
        <ele>417.924000</ele>
        <time>2023-07-29T15:20:41.792Z</time>
      </trkpt>
      <trkpt lat="50.422923" lon="8.612288">
        <ele>417.045709</ele>
        <time>2023-07-29T15:20:52.613Z</time>
      </trkpt>
      <trkpt lat="50.423469" lon="8.611655">
        <ele>416.164151</ele>
        <time>2023-07-29T15:21:12.110Z</time>
      </trkpt>
      <trkpt lat="50.424409" lon="8.611517">
        <ele>416.123444</ele>
        <time>2023-07-29T15:21:42.060Z</time>
      </trkpt>
      <trkpt lat="50.424690" lon="8.611424">
        <ele>416.315297</ele>
        <time>2023-07-29T15:21:52.146Z</time>
      </trkpt>
      <trkpt lat="50.424947" lon="8.611216">
        <ele>416.629544</ele>
        <time>2023-07-29T15:22:02.804Z</time>
      </trkpt>
      <trkpt lat="50.425012" lon="8.611071">
        <ele>416.776589</ele>
        <time>2023-07-29T15:22:07.142Z</time>
      </trkpt>
      <trkpt lat="50.425241" lon="8.610720">
        <ele>416.974426</ele>
        <time>2023-07-29T15:22:19.031Z</time>
      </trkpt>
      <trkpt lat="50.426097" lon="8.609550">
        <ele>416.361577</ele>
        <time>2023-07-29T15:22:53.425Z</time>
      </trkpt>
      <trkpt lat="50.426485" lon="8.609075">
        <ele>415.363213</ele>
        <time>2023-07-29T15:23:06.780Z</time>
      </trkpt>
      <trkpt lat="50.426869" lon="8.608469">
        <ele>413.765397</ele>
        <time>2023-07-29T15:23:20.952Z</time>
      </trkpt>
      <trkpt lat="50.427096" lon="8.608091">
        <ele>412.498229</ele>
        <time>2023-07-29T15:23:29.305Z</time>
      </trkpt>
      <trkpt lat="50.427330" lon="8.607942">
        <ele>411.485177</ele>
        <time>2023-07-29T15:23:35.611Z</time>
      </trkpt>
      <trkpt lat="50.427648" lon="8.607806">
        <ele>410.097182</ele>
        <time>2023-07-29T15:23:43.729Z</time>
      </trkpt>
      <trkpt lat="50.427839" lon="8.607489">
        <ele>408.885948</ele>
        <time>2023-07-29T15:23:50.566Z</time>
      </trkpt>
      <trkpt lat="50.427913" lon="8.607201">
        <ele>407.970313</ele>
        <time>2023-07-29T15:23:55.375Z</time>
      </trkpt>
      <trkpt lat="50.428173" lon="8.606751">
        <ele>405.997869</ele>
        <time>2023-07-29T15:24:04.707Z</time>
      </trkpt>
      <trkpt lat="50.428488" lon="8.606469">
        <ele>404.076526</ele>
        <time>2023-07-29T15:24:13.358Z</time>
      </trkpt>
      <trkpt lat="50.428890" lon="8.606382">
        <ele>401.831473</ele>
        <time>2023-07-29T15:24:22.946Z</time>
      </trkpt>
      <trkpt lat="50.429046" lon="8.606249">
        <ele>400.888353</ele>
        <time>2023-07-29T15:24:27.201Z</time>
      </trkpt>
      <trkpt lat="50.429308" lon="8.605871">
        <ele>399.042359</ele>
        <time>2023-07-29T15:24:35.697Z</time>
      </trkpt>
      <trkpt lat="50.429584" lon="8.605096">
        <ele>396.546479</ele>
        <time>2023-07-29T15:24:49.573Z</time>
      </trkpt>
      <trkpt lat="50.430047" lon="8.604421">
        <ele>394.187907</ele>
        <time>2023-07-29T15:25:05.526Z</time>
      </trkpt>
      <trkpt lat="50.430234" lon="8.604311">
        <ele>393.411439</ele>
        <time>2023-07-29T15:25:10.543Z</time>
      </trkpt>
      <trkpt lat="50.430788" lon="8.604332">
        <ele>391.405149</ele>
        <time>2023-07-29T15:25:24.632Z</time>
      </trkpt>
      <trkpt lat="50.431085" lon="8.604486">
        <ele>390.225429</ele>
        <time>2023-07-29T15:25:32.548Z</time>
      </trkpt>
      <trkpt lat="50.431881" lon="8.605206">
        <ele>385.346456</ele>
        <time>2023-07-29T15:25:54.410Z</time>
      </trkpt>
      <trkpt lat="50.432172" lon="8.605346">
        <ele>383.262416</ele>
        <time>2023-07-29T15:26:01.366Z</time>
      </trkpt>
      <trkpt lat="50.432550" lon="8.605316">
        <ele>380.363505</ele>
        <time>2023-07-29T15:26:09.858Z</time>
      </trkpt>
      <trkpt lat="50.432557" lon="8.605316">
        <ele>380.308692</ele>
        <time>2023-07-29T15:26:10.019Z</time>
      </trkpt>
      <trkpt lat="50.432686" lon="8.605253">
        <ele>379.204436</ele>
        <time>2023-07-29T15:26:12.999Z</time>
      </trkpt>
      <trkpt lat="50.432777" lon="8.605046">
        <ele>377.885334</ele>
        <time>2023-07-29T15:26:16.563Z</time>
      </trkpt>
      <trkpt lat="50.432923" lon="8.604728">
        <ele>375.943346</ele>
        <time>2023-07-29T15:26:22.076Z</time>
      </trkpt>
      <trkpt lat="50.434174" lon="8.602006">
        <ele>361.359951</ele>
        <time>2023-07-29T15:27:10.987Z</time>
      </trkpt>
      <trkpt lat="50.435539" lon="8.599007">
        <ele>356.541801</ele>
        <time>2023-07-29T15:28:14.857Z</time>
      </trkpt>
      <trkpt lat="50.436102" lon="8.597778">
        <ele>358.500023</ele>
        <time>2023-07-29T15:28:46.693Z</time>
      </trkpt>
      <trkpt lat="50.436659" lon="8.596562">
        <ele>362.362879</ele>
        <time>2023-07-29T15:29:26.996Z</time>
      </trkpt>
      <trkpt lat="50.437272" lon="8.595238">
        <ele>365.636486</ele>
        <time>2023-07-29T15:30:05.912Z</time>
      </trkpt>
      <trkpt lat="50.437607" lon="8.594912">
        <ele>366.443258</ele>
        <time>2023-07-29T15:30:18.125Z</time>
      </trkpt>
      <trkpt lat="50.437798" lon="8.594788">
        <ele>366.629348</ele>
        <time>2023-07-29T15:30:23.430Z</time>
      </trkpt>
      <trkpt lat="50.438524" lon="8.594170">
        <ele>366.369778</ele>
        <time>2023-07-29T15:30:40.538Z</time>
      </trkpt>
      <trkpt lat="50.438800" lon="8.593852">
        <ele>365.998746</ele>
        <time>2023-07-29T15:30:46.881Z</time>
      </trkpt>
      <trkpt lat="50.438950" lon="8.593739">
        <ele>365.804174</ele>
        <time>2023-07-29T15:30:50.026Z</time>
      </trkpt>
      <trkpt lat="50.439222" lon="8.593697">
        <ele>365.493592</ele>
        <time>2023-07-29T15:30:55.089Z</time>
      </trkpt>
      <trkpt lat="50.439409" lon="8.593445">
        <ele>365.175897</ele>
        <time>2023-07-29T15:30:59.713Z</time>
      </trkpt>
      <trkpt lat="50.439969" lon="8.592902">
        <ele>364.178062</ele>
        <time>2023-07-29T15:31:11.711Z</time>
      </trkpt>
      <trkpt lat="50.440654" lon="8.592017">
        <ele>362.603110</ele>
        <time>2023-07-29T15:31:27.480Z</time>
      </trkpt>
      <trkpt lat="50.440343" lon="8.591786">
        <ele>361.999320</ele>
        <time>2023-07-29T15:31:37.135Z</time>
      </trkpt>
      <trkpt lat="50.440101" lon="8.591553">
        <ele>361.497061</ele>
        <time>2023-07-29T15:31:45.011Z</time>
      </trkpt>
      <trkpt lat="50.440055" lon="8.591491">
        <ele>361.379193</ele>
        <time>2023-07-29T15:31:46.681Z</time>
      </trkpt>
      <trkpt lat="50.439994" lon="8.591408">
        <ele>361.222256</ele>
        <time>2023-07-29T15:31:48.900Z</time>
      </trkpt>
      <trkpt lat="50.439906" lon="8.591262">
        <ele>360.906046</ele>
        <time>2023-07-29T15:31:52.289Z</time>
      </trkpt>
      <trkpt lat="50.439782" lon="8.590925">
        <ele>360.156657</ele>
        <time>2023-07-29T15:31:58.797Z</time>
      </trkpt>
      <trkpt lat="50.439590" lon="8.590553">
        <ele>359.069039</ele>
        <time>2023-07-29T15:32:06.548Z</time>
      </trkpt>
      <trkpt lat="50.439285" lon="8.590285">
        <ele>357.498659</ele>
        <time>2023-07-29T15:32:15.090Z</time>
      </trkpt>
      <trkpt lat="50.438958" lon="8.589920">
        <ele>355.046158</ele>
        <time>2023-07-29T15:32:24.471Z</time>
      </trkpt>
      <trkpt lat="50.438015" lon="8.589469">
        <ele>347.796660</ele>
        <time>2023-07-29T15:32:46.664Z</time>
      </trkpt>
      <trkpt lat="50.437476" lon="8.588627">
        <ele>343.365858</ele>
        <time>2023-07-29T15:33:04.505Z</time>
      </trkpt>
      <trkpt lat="50.437418" lon="8.588799">
        <ele>342.880514</ele>
        <time>2023-07-29T15:33:07.683Z</time>
      </trkpt>
      <trkpt lat="50.437212" lon="8.589000">
        <ele>342.221381</ele>
        <time>2023-07-29T15:33:13.984Z</time>
      </trkpt>
      <trkpt lat="50.436986" lon="8.588751">
        <ele>341.972249</ele>
        <time>2023-07-29T15:33:22.184Z</time>
      </trkpt>
      <trkpt lat="50.436245" lon="8.587399">
        <ele>342.802361</ele>
        <time>2023-07-29T15:34:02.632Z</time>
      </trkpt>
      <trkpt lat="50.436180" lon="8.587269">
        <ele>342.855061</ele>
        <time>2023-07-29T15:34:06.740Z</time>
      </trkpt>
      <trkpt lat="50.436050" lon="8.586783">
        <ele>342.890704</ele>
        <time>2023-07-29T15:34:17.303Z</time>
      </trkpt>
      <trkpt lat="50.436067" lon="8.585995">
        <ele>342.774234</ele>
        <time>2023-07-29T15:34:26.825Z</time>
      </trkpt>
      <trkpt lat="50.436243" lon="8.585926">
        <ele>342.574330</ele>
        <time>2023-07-29T15:34:29.793Z</time>
      </trkpt>
      <trkpt lat="50.436497" lon="8.585920">
        <ele>342.190011</ele>
        <time>2023-07-29T15:34:33.839Z</time>
      </trkpt>
      <trkpt lat="50.436708" lon="8.585855">
        <ele>341.753664</ele>
        <time>2023-07-29T15:34:37.279Z</time>
      </trkpt>
      <trkpt lat="50.436924" lon="8.585629">
        <ele>340.961736</ele>
        <time>2023-07-29T15:34:41.031Z</time>
      </trkpt>
      <trkpt lat="50.437110" lon="8.585352">
        <ele>339.903571</ele>
        <time>2023-07-29T15:34:44.509Z</time>
      </trkpt>
      <trkpt lat="50.437418" lon="8.584645">
        <ele>337.769359</ele>
        <time>2023-07-29T15:34:52.011Z</time>
      </trkpt>
      <trkpt lat="50.438244" lon="8.582939">
        <ele>336.134810</ele>
        <time>2023-07-29T15:35:14.897Z</time>
      </trkpt>
      <trkpt lat="50.439602" lon="8.581440">
        <ele>335.409709</ele>
        <time>2023-07-29T15:35:44.762Z</time>
      </trkpt>
      <trkpt lat="50.440074" lon="8.580608">
        <ele>335.274087</ele>
        <time>2023-07-29T15:35:58.056Z</time>
      </trkpt>
      <trkpt lat="50.440397" lon="8.580182">
        <ele>334.988859</ele>
        <time>2023-07-29T15:36:05.499Z</time>
      </trkpt>
      <trkpt lat="50.440589" lon="8.579645">
        <ele>334.551023</ele>
        <time>2023-07-29T15:36:12.003Z</time>
      </trkpt>
      <trkpt lat="50.440852" lon="8.578741">
        <ele>333.014023</ele>
        <time>2023-07-29T15:36:21.734Z</time>
      </trkpt>
      <trkpt lat="50.441723" lon="8.576602">
        <ele>323.874395</ele>
        <time>2023-07-29T15:36:42.773Z</time>
      </trkpt>
      <trkpt lat="50.441964" lon="8.576424">
        <ele>322.241537</ele>
        <time>2023-07-29T15:36:46.199Z</time>
      </trkpt>
      <trkpt lat="50.442214" lon="8.576116">
        <ele>320.668715</ele>
        <time>2023-07-29T15:36:50.401Z</time>
      </trkpt>
      <trkpt lat="50.442530" lon="8.575449">
        <ele>318.458320</ele>
        <time>2023-07-29T15:36:57.712Z</time>
      </trkpt>
      <trkpt lat="50.443242" lon="8.574453">
        <ele>315.783388</ele>
        <time>2023-07-29T15:37:11.719Z</time>
      </trkpt>
      <trkpt lat="50.443648" lon="8.573943">
        <ele>315.623327</ele>
        <time>2023-07-29T15:37:21.324Z</time>
      </trkpt>
      <trkpt lat="50.444203" lon="8.573405">
        <ele>315.736212</ele>
        <time>2023-07-29T15:37:34.385Z</time>
      </trkpt>
      <trkpt lat="50.444837" lon="8.572384">
        <ele>316.405699</ele>
        <time>2023-07-29T15:37:55.563Z</time>
      </trkpt>
      <trkpt lat="50.445019" lon="8.571734">
        <ele>316.841644</ele>
        <time>2023-07-29T15:38:06.074Z</time>
      </trkpt>
      <trkpt lat="50.445146" lon="8.570953">
        <ele>317.617964</ele>
        <time>2023-07-29T15:38:19.959Z</time>
      </trkpt>
      <trkpt lat="50.445348" lon="8.569573">
        <ele>319.086005</ele>
        <time>2023-07-29T15:38:45.709Z</time>
      </trkpt>
      <trkpt lat="50.445493" lon="8.568121">
        <ele>317.255151</ele>
        <time>2023-07-29T15:39:00.148Z</time>
      </trkpt>
      <trkpt lat="50.445565" lon="8.567645">
        <ele>315.800689</ele>
        <time>2023-07-29T15:39:04.303Z</time>
      </trkpt>
      <trkpt lat="50.445695" lon="8.567099">
        <ele>313.908073</ele>
        <time>2023-07-29T15:39:09.216Z</time>
      </trkpt>
      <trkpt lat="50.445882" lon="8.566855">
        <ele>312.661897</ele>
        <time>2023-07-29T15:39:12.468Z</time>
      </trkpt>
      <trkpt lat="50.445948" lon="8.567098">
        <ele>311.776105</ele>
        <time>2023-07-29T15:39:14.630Z</time>
      </trkpt>
      <trkpt lat="50.446050" lon="8.567291">
        <ele>310.960319</ele>
        <time>2023-07-29T15:39:16.840Z</time>
      </trkpt>
      <trkpt lat="50.446243" lon="8.567419">
        <ele>309.983689</ele>
        <time>2023-07-29T15:39:19.598Z</time>
      </trkpt>
      <trkpt lat="50.446267" lon="8.567602">
        <ele>309.500725</ele>
        <time>2023-07-29T15:39:21.320Z</time>
      </trkpt>
      <trkpt lat="50.446658" lon="8.568444">
        <ele>306.932538</ele>
        <time>2023-07-29T15:39:30.516Z</time>
      </trkpt>
      <trkpt lat="50.446800" lon="8.568632">
        <ele>306.401732</ele>
        <time>2023-07-29T15:39:33.240Z</time>
      </trkpt>
      <trkpt lat="50.447110" lon="8.568889">
        <ele>305.926279</ele>
        <time>2023-07-29T15:39:38.872Z</time>
      </trkpt>
      <trkpt lat="50.447338" lon="8.569278">
        <ele>306.488994</ele>
        <time>2023-07-29T15:39:48.476Z</time>
      </trkpt>
      <trkpt lat="50.447401" lon="8.569908">
        <ele>307.833871</ele>
        <time>2023-07-29T15:40:03.349Z</time>
      </trkpt>
      <trkpt lat="50.447394" lon="8.570183">
        <ele>308.540309</ele>
        <time>2023-07-29T15:40:10.246Z</time>
      </trkpt>
      <trkpt lat="50.447298" lon="8.570467">
        <ele>309.498316</ele>
        <time>2023-07-29T15:40:18.729Z</time>
      </trkpt>
      <trkpt lat="50.447181" lon="8.570987">
        <ele>311.217916</ele>
        <time>2023-07-29T15:40:34.004Z</time>
      </trkpt>
      <trkpt lat="50.447086" lon="8.571943">
        <ele>314.414308</ele>
        <time>2023-07-29T15:41:01.894Z</time>
      </trkpt>
      <trkpt lat="50.447106" lon="8.572204">
        <ele>315.340054</ele>
        <time>2023-07-29T15:41:09.555Z</time>
      </trkpt>
      <trkpt lat="50.447422" lon="8.573369">
        <ele>320.356357</ele>
        <time>2023-07-29T15:41:50.075Z</time>
      </trkpt>
      <trkpt lat="50.447695" lon="8.573974">
        <ele>323.838159</ele>
        <time>2023-07-29T15:42:16.975Z</time>
      </trkpt>
      <trkpt lat="50.447979" lon="8.574667">
        <ele>328.232416</ele>
        <time>2023-07-29T15:42:49.089Z</time>
      </trkpt>
      <trkpt lat="50.448102" lon="8.575146">
        <ele>331.208435</ele>
        <time>2023-07-29T15:43:10.137Z</time>
      </trkpt>
      <trkpt lat="50.448340" lon="8.576126">
        <ele>337.370316</ele>
        <time>2023-07-29T15:43:54.048Z</time>
      </trkpt>
      <trkpt lat="50.448412" lon="8.577597">
        <ele>345.537385</ele>
        <time>2023-07-29T15:44:53.043Z</time>
      </trkpt>
      <trkpt lat="50.448345" lon="8.578670">
        <ele>350.553637</ele>
        <time>2023-07-29T15:45:31.101Z</time>
      </trkpt>
      <trkpt lat="50.448308" lon="8.579259">
        <ele>352.744553</ele>
        <time>2023-07-29T15:45:50.206Z</time>
      </trkpt>
      <trkpt lat="50.448273" lon="8.582235">
        <ele>359.136367</ele>
        <time>2023-07-29T15:47:21.952Z</time>
      </trkpt>
      <trkpt lat="50.448255" lon="8.582486">
        <ele>359.344739</ele>
        <time>2023-07-29T15:47:27.967Z</time>
      </trkpt>
      <trkpt lat="50.448251" lon="8.582508">
        <ele>359.362525</ele>
        <time>2023-07-29T15:47:28.527Z</time>
      </trkpt>
      <trkpt lat="50.448028" lon="8.583848">
        <ele>359.845125</ele>
        <time>2023-07-29T15:47:58.906Z</time>
      </trkpt>
      <trkpt lat="50.447931" lon="8.584127">
        <ele>359.797941</ele>
        <time>2023-07-29T15:48:05.177Z</time>
      </trkpt>
      <trkpt lat="50.447783" lon="8.584335">
        <ele>359.693518</ele>
        <time>2023-07-29T15:48:11.216Z</time>
      </trkpt>
      <trkpt lat="50.447492" lon="8.584998">
        <ele>359.420549</ele>
        <time>2023-07-29T15:48:26.616Z</time>
      </trkpt>
      <trkpt lat="50.447084" lon="8.585752">
        <ele>359.308882</ele>
        <time>2023-07-29T15:48:46.382Z</time>
      </trkpt>
      <trkpt lat="50.447002" lon="8.586086">
        <ele>359.286999</ele>
        <time>2023-07-29T15:48:53.540Z</time>
      </trkpt>
      <trkpt lat="50.446914" lon="8.586744">
        <ele>359.182730</ele>
        <time>2023-07-29T15:49:06.895Z</time>
      </trkpt>
      <trkpt lat="50.446218" lon="8.586735">
        <ele>358.924024</ele>
        <time>2023-07-29T15:49:20.938Z</time>
      </trkpt>
      <trkpt lat="50.445174" lon="8.586791">
        <ele>358.912178</ele>
        <time>2023-07-29T15:49:43.180Z</time>
      </trkpt>
      <trkpt lat="50.445067" lon="8.586885">
        <ele>358.945318</ele>
        <time>2023-07-29T15:49:45.771Z</time>
      </trkpt>
      <trkpt lat="50.443297" lon="8.588964">
        <ele>361.036453</ele>
        <time>2023-07-29T15:50:43.779Z</time>
      </trkpt>
      <trkpt lat="50.441348" lon="8.591224">
        <ele>364.791518</ele>
        <time>2023-07-29T15:51:55.150Z</time>
      </trkpt>
      <trkpt lat="50.440925" lon="8.591704">
        <ele>364.900003</ele>
        <time>2023-07-29T15:52:06.415Z</time>
      </trkpt>
      <trkpt lat="50.440654" lon="8.592017">
        <ele>364.851584</ele>
        <time>2023-07-29T15:52:13.449Z</time>
      </trkpt>
      <trkpt lat="50.439969" lon="8.592902">
        <ele>363.979691</ele>
        <time>2023-07-29T15:52:30.422Z</time>
      </trkpt>
      <trkpt lat="50.439409" lon="8.593445">
        <ele>363.009214</ele>
        <time>2023-07-29T15:52:42.283Z</time>
      </trkpt>
      <trkpt lat="50.439222" lon="8.593697">
        <ele>362.676551</ele>
        <time>2023-07-29T15:52:46.934Z</time>
      </trkpt>
      <trkpt lat="50.439335" lon="8.593991">
        <ele>362.312199</ele>
        <time>2023-07-29T15:52:50.838Z</time>
      </trkpt>
      <trkpt lat="50.439426" lon="8.594708">
        <ele>361.594597</ele>
        <time>2023-07-29T15:52:59.344Z</time>
      </trkpt>
      <trkpt lat="50.439534" lon="8.595159">
        <ele>361.085893</ele>
        <time>2023-07-29T15:53:04.808Z</time>
      </trkpt>
      <trkpt lat="50.439832" lon="8.596044">
        <ele>359.950576</ele>
        <time>2023-07-29T15:53:16.105Z</time>
      </trkpt>
      <trkpt lat="50.440060" lon="8.597143">
        <ele>359.035283</ele>
        <time>2023-07-29T15:53:29.834Z</time>
      </trkpt>
      <trkpt lat="50.440152" lon="8.597696">
        <ele>358.833907</ele>
        <time>2023-07-29T15:53:37.208Z</time>
      </trkpt>
      <trkpt lat="50.440985" lon="8.598347">
        <ele>358.818429</ele>
        <time>2023-07-29T15:53:56.950Z</time>
      </trkpt>
      <trkpt lat="50.441745" lon="8.599051">
        <ele>358.993693</ele>
        <time>2023-07-29T15:54:17.000Z</time>
      </trkpt>
      <trkpt lat="50.442302" lon="8.599790">
        <ele>359.062324</ele>
        <time>2023-07-29T15:54:33.171Z</time>
      </trkpt>
      <trkpt lat="50.442447" lon="8.600317">
        <ele>358.814704</ele>
        <time>2023-07-29T15:54:40.394Z</time>
      </trkpt>
      <trkpt lat="50.442611" lon="8.601343">
        <ele>357.226040</ele>
        <time>2023-07-29T15:54:52.087Z</time>
      </trkpt>
      <trkpt lat="50.442931" lon="8.602695">
        <ele>352.025742</ele>
        <time>2023-07-29T15:55:05.725Z</time>
      </trkpt>
      <trkpt lat="50.443269" lon="8.603518">
        <ele>345.939680</ele>
        <time>2023-07-29T15:55:14.190Z</time>
      </trkpt>
      <trkpt lat="50.443468" lon="8.603840">
        <ele>342.665784</ele>
        <time>2023-07-29T15:55:17.972Z</time>
      </trkpt>
      <trkpt lat="50.443631" lon="8.605177">
        <ele>333.215972</ele>
        <time>2023-07-29T15:55:29.574Z</time>
      </trkpt>
      <trkpt lat="50.443703" lon="8.605445">
        <ele>331.587172</ele>
        <time>2023-07-29T15:55:32.132Z</time>
      </trkpt>
      <trkpt lat="50.444270" lon="8.605991">
        <ele>327.822865</ele>
        <time>2023-07-29T15:55:41.998Z</time>
      </trkpt>
      <trkpt lat="50.443846" lon="8.605916">
        <ele>327.099768</ele>
        <time>2023-07-29T15:55:49.654Z</time>
      </trkpt>
      <trkpt lat="50.443424" lon="8.605885">
        <ele>327.519359</ele>
        <time>2023-07-29T15:56:01.087Z</time>
      </trkpt>
      <trkpt lat="50.443056" lon="8.605994">
        <ele>328.847877</ele>
        <time>2023-07-29T15:56:15.554Z</time>
      </trkpt>
      <trkpt lat="50.442454" lon="8.606489">
        <ele>332.334065</ele>
        <time>2023-07-29T15:56:48.201Z</time>
      </trkpt>
      <trkpt lat="50.441649" lon="8.606680">
        <ele>336.175929</ele>
        <time>2023-07-29T15:57:24.891Z</time>
      </trkpt>
      <trkpt lat="50.441420" lon="8.606670">
        <ele>337.117064</ele>
        <time>2023-07-29T15:57:34.263Z</time>
      </trkpt>
      <trkpt lat="50.441236" lon="8.606661">
        <ele>337.929873</ele>
        <time>2023-07-29T15:57:42.018Z</time>
      </trkpt>
      <trkpt lat="50.440288" lon="8.606457">
        <ele>342.844482</ele>
        <time>2023-07-29T15:58:26.952Z</time>
      </trkpt>
      <trkpt lat="50.439935" lon="8.606502">
        <ele>345.008106</ele>
        <time>2023-07-29T15:58:45.891Z</time>
      </trkpt>
      <trkpt lat="50.439556" lon="8.606798">
        <ele>347.674935</ele>
        <time>2023-07-29T15:59:08.346Z</time>
      </trkpt>
      <trkpt lat="50.439387" lon="8.606807">
        <ele>348.704940</ele>
        <time>2023-07-29T15:59:16.929Z</time>
      </trkpt>
      <trkpt lat="50.439060" lon="8.606712">
        <ele>350.711440</ele>
        <time>2023-07-29T15:59:34.041Z</time>
      </trkpt>
      <trkpt lat="50.438926" lon="8.606846">
        <ele>351.663092</ele>
        <time>2023-07-29T15:59:42.229Z</time>
      </trkpt>
      <trkpt lat="50.438717" lon="8.607465">
        <ele>354.173727</ele>
        <time>2023-07-29T16:00:04.723Z</time>
      </trkpt>
      <trkpt lat="50.438510" lon="8.608019">
        <ele>356.243013</ele>
        <time>2023-07-29T16:00:23.798Z</time>
      </trkpt>
      <trkpt lat="50.438347" lon="8.608359">
        <ele>357.316205</ele>
        <time>2023-07-29T16:00:35.211Z</time>
      </trkpt>
      <trkpt lat="50.438015" lon="8.608882">
        <ele>358.530763</ele>
        <time>2023-07-29T16:00:51.258Z</time>
      </trkpt>
      <trkpt lat="50.437751" lon="8.609175">
        <ele>358.967776</ele>
        <time>2023-07-29T16:01:00.005Z</time>
      </trkpt>
      <trkpt lat="50.437474" lon="8.609355">
        <ele>359.089649</ele>
        <time>2023-07-29T16:01:06.867Z</time>
      </trkpt>
      <trkpt lat="50.437073" lon="8.609846">
        <ele>359.065280</ele>
        <time>2023-07-29T16:01:18.213Z</time>
      </trkpt>
      <trkpt lat="50.436194" lon="8.610540">
        <ele>356.748393</ele>
        <time>2023-07-29T16:01:35.002Z</time>
      </trkpt>
      <trkpt lat="50.435893" lon="8.610736">
        <ele>355.494527</ele>
        <time>2023-07-29T16:01:40.158Z</time>
      </trkpt>
      <trkpt lat="50.435913" lon="8.611042">
        <ele>354.684814</ele>
        <time>2023-07-29T16:01:44.974Z</time>
      </trkpt>
      <trkpt lat="50.435997" lon="8.611339">
        <ele>353.773977</ele>
        <time>2023-07-29T16:01:50.071Z</time>
      </trkpt>
      <trkpt lat="50.436245" lon="8.611894">
        <ele>351.690862</ele>
        <time>2023-07-29T16:02:00.546Z</time>
      </trkpt>
      <trkpt lat="50.436252" lon="8.611918">
        <ele>351.607097</ele>
        <time>2023-07-29T16:02:00.962Z</time>
      </trkpt>
      <trkpt lat="50.436321" lon="8.612131">
        <ele>350.848781</ele>
        <time>2023-07-29T16:02:04.612Z</time>
      </trkpt>
      <trkpt lat="50.437712" lon="8.612186">
        <ele>342.118389</ele>
        <time>2023-07-29T16:02:36.868Z</time>
      </trkpt>
      <trkpt lat="50.438571" lon="8.612133">
        <ele>336.997447</ele>
        <time>2023-07-29T16:02:57.032Z</time>
      </trkpt>
      <trkpt lat="50.439066" lon="8.612043">
        <ele>333.995409</ele>
        <time>2023-07-29T16:03:08.640Z</time>
      </trkpt>
      <trkpt lat="50.439721" lon="8.612770">
        <ele>329.124355</ele>
        <time>2023-07-29T16:03:27.347Z</time>
      </trkpt>
      <trkpt lat="50.440514" lon="8.613484">
        <ele>324.037039</ele>
        <time>2023-07-29T16:03:48.971Z</time>
      </trkpt>
      <trkpt lat="50.440596" lon="8.613527">
        <ele>323.594097</ele>
        <time>2023-07-29T16:03:51.063Z</time>
      </trkpt>
      <trkpt lat="50.442012" lon="8.612863">
        <ele>316.329485</ele>
        <time>2023-07-29T16:04:26.774Z</time>
      </trkpt>
      <trkpt lat="50.442106" lon="8.612883">
        <ele>315.888341</ele>
        <time>2023-07-29T16:04:29.093Z</time>
      </trkpt>
      <trkpt lat="50.442243" lon="8.613053">
        <ele>315.096709</ele>
        <time>2023-07-29T16:04:33.340Z</time>
      </trkpt>
      <trkpt lat="50.442474" lon="8.613225">
        <ele>313.885094</ele>
        <time>2023-07-29T16:04:39.528Z</time>
      </trkpt>
      <trkpt lat="50.442887" lon="8.613261">
        <ele>311.796346</ele>
        <time>2023-07-29T16:04:49.482Z</time>
      </trkpt>
      <trkpt lat="50.443072" lon="8.613478">
        <ele>310.590149</ele>
        <time>2023-07-29T16:04:55.019Z</time>
      </trkpt>
      <trkpt lat="50.443291" lon="8.613928">
        <ele>308.610886</ele>
        <time>2023-07-29T16:05:03.599Z</time>
      </trkpt>
      <trkpt lat="50.443466" lon="8.614032">
        <ele>307.586391</ele>
        <time>2023-07-29T16:05:08.033Z</time>
      </trkpt>
      <trkpt lat="50.443767" lon="8.614099">
        <ele>305.910285</ele>
        <time>2023-07-29T16:05:15.230Z</time>
      </trkpt>
      <trkpt lat="50.444028" lon="8.614093">
        <ele>304.502236</ele>
        <time>2023-07-29T16:05:21.443Z</time>
      </trkpt>
      <trkpt lat="50.444211" lon="8.613939">
        <ele>303.419785</ele>
        <time>2023-07-29T16:05:26.414Z</time>
      </trkpt>
      <trkpt lat="50.444664" lon="8.613822">
        <ele>301.215974</ele>
        <time>2023-07-29T16:05:37.523Z</time>
      </trkpt>
      <trkpt lat="50.444718" lon="8.613752">
        <ele>300.896367</ele>
        <time>2023-07-29T16:05:39.202Z</time>
      </trkpt>
      <trkpt lat="50.444822" lon="8.613447">
        <ele>299.923135</ele>
        <time>2023-07-29T16:05:44.628Z</time>
      </trkpt>
      <trkpt lat="50.444875" lon="8.613377">
        <ele>299.640583</ele>
        <time>2023-07-29T16:05:46.359Z</time>
      </trkpt>
      <trkpt lat="50.444945" lon="8.613341">
        <ele>299.340062</ele>
        <time>2023-07-29T16:05:48.193Z</time>
      </trkpt>
      <trkpt lat="50.445067" lon="8.613487">
        <ele>298.836924</ele>
        <time>2023-07-29T16:05:52.138Z</time>
      </trkpt>
      <trkpt lat="50.445219" lon="8.613743">
        <ele>298.254009</ele>
        <time>2023-07-29T16:05:58.022Z</time>
      </trkpt>
      <trkpt lat="50.445325" lon="8.614165">
        <ele>297.755449</ele>
        <time>2023-07-29T16:06:06.111Z</time>
      </trkpt>
      <trkpt lat="50.445454" lon="8.614426">
        <ele>297.637837</ele>
        <time>2023-07-29T16:06:12.344Z</time>
      </trkpt>
      <trkpt lat="50.445802" lon="8.614798">
        <ele>297.795715</ele>
        <time>2023-07-29T16:06:26.620Z</time>
      </trkpt>
      <trkpt lat="50.445887" lon="8.614927">
        <ele>297.981640</ele>
        <time>2023-07-29T16:06:31.231Z</time>
      </trkpt>
      <trkpt lat="50.446537" lon="8.618377">
        <ele>305.953981</ele>
        <time>2023-07-29T16:08:24.092Z</time>
      </trkpt>
      <trkpt lat="50.446630" lon="8.618875">
        <ele>307.382419</ele>
        <time>2023-07-29T16:08:41.844Z</time>
      </trkpt>
      <trkpt lat="50.446966" lon="8.620576">
        <ele>312.060088</ele>
        <time>2023-07-29T16:09:41.570Z</time>
      </trkpt>
      <trkpt lat="50.446909" lon="8.621112">
        <ele>313.086614</ele>
        <time>2023-07-29T16:09:57.916Z</time>
      </trkpt>
      <trkpt lat="50.446838" lon="8.622743">
        <ele>314.932152</ele>
        <time>2023-07-29T16:10:40.363Z</time>
      </trkpt>
      <trkpt lat="50.447586" lon="8.623176">
        <ele>314.465186</ele>
        <time>2023-07-29T16:11:04.311Z</time>
      </trkpt>
      <trkpt lat="50.448375" lon="8.623784">
        <ele>313.416733</ele>
        <time>2023-07-29T16:11:29.592Z</time>
      </trkpt>
      <trkpt lat="50.448666" lon="8.623973">
        <ele>313.095610</ele>
        <time>2023-07-29T16:11:38.825Z</time>
      </trkpt>
      <trkpt lat="50.448738" lon="8.624054">
        <ele>313.019321</ele>
        <time>2023-07-29T16:11:41.394Z</time>
      </trkpt>
      <trkpt lat="50.448880" lon="8.624455">
        <ele>312.799809</ele>
        <time>2023-07-29T16:11:50.028Z</time>
      </trkpt>
      <trkpt lat="50.449127" lon="8.626005">
        <ele>312.094726</ele>
        <time>2023-07-29T16:12:20.519Z</time>
      </trkpt>
      <trkpt lat="50.451167" lon="8.625660">
        <ele>310.468152</ele>
        <time>2023-07-29T16:13:21.199Z</time>
      </trkpt>
      <trkpt lat="50.451006" lon="8.627383">
        <ele>310.988535</ele>
        <time>2023-07-29T16:13:58.999Z</time>
      </trkpt>
      <trkpt lat="50.450893" lon="8.628299">
        <ele>312.429154</ele>
        <time>2023-07-29T16:14:25.410Z</time>
      </trkpt>
      <trkpt lat="50.450515" lon="8.630655">
        <ele>317.223309</ele>
        <time>2023-07-29T16:15:39.115Z</time>
      </trkpt>
      <trkpt lat="50.450194" lon="8.633287">
        <ele>320.016459</ele>
        <time>2023-07-29T16:16:47.979Z</time>
      </trkpt>
      <trkpt lat="50.449872" lon="8.635903">
        <ele>317.857287</ele>
        <time>2023-07-29T16:17:36.548Z</time>
      </trkpt>
      <trkpt lat="50.449515" lon="8.638941">
        <ele>308.940739</ele>
        <time>2023-07-29T16:18:24.712Z</time>
      </trkpt>
      <trkpt lat="50.449745" lon="8.638964">
        <ele>307.366514</ele>
        <time>2023-07-29T16:18:29.919Z</time>
      </trkpt>
      <trkpt lat="50.450393" lon="8.638851">
        <ele>302.114917</ele>
        <time>2023-07-29T16:18:44.454Z</time>
      </trkpt>
      <trkpt lat="50.451382" lon="8.638763">
        <ele>293.397500</ele>
        <time>2023-07-29T16:19:06.145Z</time>
      </trkpt>
      <trkpt lat="50.451482" lon="8.638757">
        <ele>292.533492</ele>
        <time>2023-07-29T16:19:08.326Z</time>
      </trkpt>
      <trkpt lat="50.452100" lon="8.638928">
        <ele>287.214150</ele>
        <time>2023-07-29T16:19:22.177Z</time>
      </trkpt>
      <trkpt lat="50.453012" lon="8.639180">
        <ele>279.739410</ele>
        <time>2023-07-29T16:19:42.777Z</time>
      </trkpt>
      <trkpt lat="50.453041" lon="8.639095">
        <ele>279.273413</ele>
        <time>2023-07-29T16:19:44.180Z</time>
      </trkpt>
      <trkpt lat="50.453190" lon="8.639757">
        <ele>275.789490</ele>
        <time>2023-07-29T16:19:50.054Z</time>
      </trkpt>
      <trkpt lat="50.453563" lon="8.641033">
        <ele>268.709604</ele>
        <time>2023-07-29T16:20:01.827Z</time>
      </trkpt>
      <trkpt lat="50.453647" lon="8.641256">
        <ele>267.468942</ele>
        <time>2023-07-29T16:20:04.007Z</time>
      </trkpt>
      <trkpt lat="50.454343" lon="8.642075">
        <ele>261.769514</ele>
        <time>2023-07-29T16:20:15.817Z</time>
      </trkpt>
      <trkpt lat="50.454865" lon="8.642690">
        <ele>258.757896</ele>
        <time>2023-07-29T16:20:25.198Z</time>
      </trkpt>
      <trkpt lat="50.455828" lon="8.643894">
        <ele>255.537852</ele>
        <time>2023-07-29T16:20:44.603Z</time>
      </trkpt>
      <trkpt lat="50.456251" lon="8.644420">
        <ele>254.890097</ele>
        <time>2023-07-29T16:20:54.320Z</time>
      </trkpt>
      <trkpt lat="50.456914" lon="8.645264">
        <ele>253.852662</ele>
        <time>2023-07-29T16:21:09.260Z</time>
      </trkpt>
      <trkpt lat="50.457383" lon="8.645803">
        <ele>252.706774</ele>
        <time>2023-07-29T16:21:18.860Z</time>
      </trkpt>
      <trkpt lat="50.457426" lon="8.645849">
        <ele>252.604977</ele>
        <time>2023-07-29T16:21:19.710Z</time>
      </trkpt>
      <trkpt lat="50.457549" lon="8.646007">
        <ele>252.286950</ele>
        <time>2023-07-29T16:21:22.306Z</time>
      </trkpt>
      <trkpt lat="50.458606" lon="8.647190">
        <ele>249.503770</ele>
        <time>2023-07-29T16:21:43.427Z</time>
      </trkpt>
      <trkpt lat="50.458829" lon="8.647490">
        <ele>248.903778</ele>
        <time>2023-07-29T16:21:48.239Z</time>
      </trkpt>
      <trkpt lat="50.458967" lon="8.647722">
        <ele>248.508313</ele>
        <time>2023-07-29T16:21:51.581Z</time>
      </trkpt>
      <trkpt lat="50.458772" lon="8.648459">
        <ele>247.612796</ele>
        <time>2023-07-29T16:22:05.724Z</time>
      </trkpt>
      <trkpt lat="50.458649" lon="8.648819">
        <ele>247.215460</ele>
        <time>2023-07-29T16:22:13.066Z</time>
      </trkpt>
      <trkpt lat="50.458303" lon="8.649502">
        <ele>246.477718</ele>
        <time>2023-07-29T16:22:29.004Z</time>
      </trkpt>
      <trkpt lat="50.457436" lon="8.650972">
        <ele>243.950128</ele>
        <time>2023-07-29T16:23:04.044Z</time>
      </trkpt>
      <trkpt lat="50.457358" lon="8.651207">
        <ele>243.543460</ele>
        <time>2023-07-29T16:23:08.494Z</time>
      </trkpt>
      <trkpt lat="50.457433" lon="8.651215">
        <ele>243.355707</ele>
        <time>2023-07-29T16:23:09.615Z</time>
      </trkpt>
      <trkpt lat="50.457374" lon="8.651396">
        <ele>242.994378</ele>
        <time>2023-07-29T16:23:11.483Z</time>
      </trkpt>
      <trkpt lat="50.456872" lon="8.652460">
        <ele>240.522190</ele>
        <time>2023-07-29T16:23:23.812Z</time>
      </trkpt>
      <trkpt lat="50.456290" lon="8.653710">
        <ele>238.223046</ele>
        <time>2023-07-29T16:23:44.159Z</time>
      </trkpt>
      <trkpt lat="50.455528" lon="8.655215">
        <ele>237.858550</ele>
        <time>2023-07-29T16:24:09.407Z</time>
      </trkpt>
      <trkpt lat="50.454693" lon="8.656458">
        <ele>239.606038</ele>
        <time>2023-07-29T16:24:43.277Z</time>
      </trkpt>
      <trkpt lat="50.454386" lon="8.656702">
        <ele>240.186701</ele>
        <time>2023-07-29T16:24:53.453Z</time>
      </trkpt>
      <trkpt lat="50.454058" lon="8.657061">
        <ele>240.815539</ele>
        <time>2023-07-29T16:25:05.285Z</time>
      </trkpt>
      <trkpt lat="50.453859" lon="8.657369">
        <ele>241.256016</ele>
        <time>2023-07-29T16:25:13.304Z</time>
      </trkpt>
      <trkpt lat="50.453064" lon="8.658103">
        <ele>242.170238</ele>
        <time>2023-07-29T16:25:37.518Z</time>
      </trkpt>
      <trkpt lat="50.453198" lon="8.659352">
        <ele>242.553779</ele>
        <time>2023-07-29T16:25:54.731Z</time>
      </trkpt>
      <trkpt lat="50.453274" lon="8.660110">
        <ele>243.356052</ele>
        <time>2023-07-29T16:26:07.695Z</time>
      </trkpt>
      <trkpt lat="50.453430" lon="8.661482">
        <ele>245.953018</ele>
        <time>2023-07-29T16:26:38.421Z</time>
      </trkpt>
      <trkpt lat="50.453666" lon="8.663301">
        <ele>249.078933</ele>
        <time>2023-07-29T16:27:16.759Z</time>
      </trkpt>
      <trkpt lat="50.453706" lon="8.663496">
        <ele>249.325970</ele>
        <time>2023-07-29T16:27:20.815Z</time>
      </trkpt>
      <trkpt lat="50.453641" lon="8.663570">
        <ele>249.420927</ele>
        <time>2023-07-29T16:27:22.941Z</time>
      </trkpt>
      <trkpt lat="50.452917" lon="8.663702">
        <ele>249.630434</ele>
        <time>2023-07-29T16:27:39.736Z</time>
      </trkpt>
      <trkpt lat="50.452660" lon="8.663823">
        <ele>249.223674</ele>
        <time>2023-07-29T16:27:44.644Z</time>
      </trkpt>
      <trkpt lat="50.451635" lon="8.664459">
        <ele>245.195556</ele>
        <time>2023-07-29T16:28:02.170Z</time>
      </trkpt>
      <trkpt lat="50.451102" lon="8.664877">
        <ele>242.927695</ele>
        <time>2023-07-29T16:28:11.605Z</time>
      </trkpt>
      <trkpt lat="50.450934" lon="8.665206">
        <ele>242.022081</ele>
        <time>2023-07-29T16:28:15.985Z</time>
      </trkpt>
      <trkpt lat="50.450732" lon="8.665722">
        <ele>240.907662</ele>
        <time>2023-07-29T16:28:22.379Z</time>
      </trkpt>
      <trkpt lat="50.450398" lon="8.667007">
        <ele>238.507615</ele>
        <time>2023-07-29T16:28:37.186Z</time>
      </trkpt>
      <trkpt lat="50.450343" lon="8.667164">
        <ele>238.206349</ele>
        <time>2023-07-29T16:28:39.117Z</time>
      </trkpt>
      <trkpt lat="50.450234" lon="8.667356">
        <ele>237.794834</ele>
        <time>2023-07-29T16:28:41.886Z</time>
      </trkpt>
      <trkpt lat="50.450027" lon="8.667634">
        <ele>237.070673</ele>
        <time>2023-07-29T16:28:46.471Z</time>
      </trkpt>
      <trkpt lat="50.448530" lon="8.668974">
        <ele>231.301963</ele>
        <time>2023-07-29T16:29:14.424Z</time>
      </trkpt>
      <trkpt lat="50.448042" lon="8.669673">
        <ele>229.145285</ele>
        <time>2023-07-29T16:29:25.161Z</time>
      </trkpt>
      <trkpt lat="50.447658" lon="8.669996">
        <ele>228.137942</ele>
        <time>2023-07-29T16:29:32.468Z</time>
      </trkpt>
      <trkpt lat="50.446753" lon="8.671498">
        <ele>226.775377</ele>
        <time>2023-07-29T16:29:57.647Z</time>
      </trkpt>
      <trkpt lat="50.446633" lon="8.671739">
        <ele>226.806205</ele>
        <time>2023-07-29T16:30:02.149Z</time>
      </trkpt>
      <trkpt lat="50.445951" lon="8.673651">
        <ele>227.712437</ele>
        <time>2023-07-29T16:30:36.835Z</time>
      </trkpt>
      <trkpt lat="50.445412" lon="8.674705">
        <ele>228.338816</ele>
        <time>2023-07-29T16:30:56.760Z</time>
      </trkpt>
      <trkpt lat="50.445058" lon="8.675759">
        <ele>228.065048</ele>
        <time>2023-07-29T16:31:10.573Z</time>
      </trkpt>
      <trkpt lat="50.444994" lon="8.676363">
        <ele>227.664111</ele>
        <time>2023-07-29T16:31:17.015Z</time>
      </trkpt>
      <trkpt lat="50.444972" lon="8.677143">
        <ele>226.881251</ele>
        <time>2023-07-29T16:31:25.052Z</time>
      </trkpt>
      <trkpt lat="50.445206" lon="8.678467">
        <ele>225.157380</ele>
        <time>2023-07-29T16:31:38.578Z</time>
      </trkpt>
      <trkpt lat="50.445868" lon="8.680612">
        <ele>221.557951</ele>
        <time>2023-07-29T16:32:01.377Z</time>
      </trkpt>
      <trkpt lat="50.446415" lon="8.682647">
        <ele>220.004890</ele>
        <time>2023-07-29T16:32:24.699Z</time>
      </trkpt>
      <trkpt lat="50.447257" lon="8.685207">
        <ele>221.931831</ele>
        <time>2023-07-29T16:33:09.778Z</time>
      </trkpt>
      <trkpt lat="50.448344" lon="8.685929">
        <ele>225.800300</ele>
        <time>2023-07-29T16:33:53.295Z</time>
      </trkpt>
      <trkpt lat="50.449798" lon="8.685213">
        <ele>227.348631</ele>
        <time>2023-07-29T16:34:30.515Z</time>
      </trkpt>
      <trkpt lat="50.449383" lon="8.686343">
        <ele>224.591437</ele>
        <time>2023-07-29T16:34:43.102Z</time>
      </trkpt>
      <trkpt lat="50.449215" lon="8.686800">
        <ele>222.687008</ele>
        <time>2023-07-29T16:34:47.746Z</time>
      </trkpt>
      <trkpt lat="50.448755" lon="8.688089">
        <ele>215.078519</ele>
        <time>2023-07-29T16:35:00.071Z</time>
      </trkpt>
      <trkpt lat="50.448737" lon="8.688190">
        <ele>214.507801</ele>
        <time>2023-07-29T16:35:00.945Z</time>
      </trkpt>
      <trkpt lat="50.448656" lon="8.688652">
        <ele>211.910324</ele>
        <time>2023-07-29T16:35:04.916Z</time>
      </trkpt>
      <trkpt lat="50.447274" lon="8.691828">
        <ele>191.660544</ele>
        <time>2023-07-29T16:35:36.905Z</time>
      </trkpt>
      <trkpt lat="50.445360" lon="8.695074">
        <ele>176.230298</ele>
        <time>2023-07-29T16:36:16.316Z</time>
      </trkpt>
      <trkpt lat="50.445303" lon="8.695131">
        <ele>176.087785</ele>
        <time>2023-07-29T16:36:17.403Z</time>
      </trkpt>
      <trkpt lat="50.445340" lon="8.695217">
        <ele>175.948401</ele>
        <time>2023-07-29T16:36:18.518Z</time>
      </trkpt>
      <trkpt lat="50.445904" lon="8.695548">
        <ele>175.045214</ele>
        <time>2023-07-29T16:36:28.916Z</time>
      </trkpt>
      <trkpt lat="50.446342" lon="8.695866">
        <ele>174.758460</ele>
        <time>2023-07-29T16:36:37.891Z</time>
      </trkpt>
      <trkpt lat="50.447148" lon="8.696753">
        <ele>174.641816</ele>
        <time>2023-07-29T16:36:57.670Z</time>
      </trkpt>
      <trkpt lat="50.447980" lon="8.697726">
        <ele>173.110865</ele>
        <time>2023-07-29T16:37:15.522Z</time>
      </trkpt>
      <trkpt lat="50.448415" lon="8.698517">
        <ele>171.451109</ele>
        <time>2023-07-29T16:37:26.088Z</time>
      </trkpt>
      <trkpt lat="50.448875" lon="8.699107">
        <ele>169.573798</ele>
        <time>2023-07-29T16:37:35.139Z</time>
      </trkpt>
      <trkpt lat="50.448796" lon="8.699262">
        <ele>169.083465</ele>
        <time>2023-07-29T16:37:38.313Z</time>
      </trkpt>
      <trkpt lat="50.448598" lon="8.699703">
        <ele>167.697117</ele>
        <time>2023-07-29T16:37:46.918Z</time>
      </trkpt>
      <trkpt lat="50.448555" lon="8.699812">
        <ele>167.345715</ele>
        <time>2023-07-29T16:37:48.942Z</time>
      </trkpt>
      <trkpt lat="50.447909" lon="8.701255">
        <ele>161.953427</ele>
        <time>2023-07-29T16:38:16.148Z</time>
      </trkpt>
      <trkpt lat="50.447149" lon="8.702970">
        <ele>154.631019</ele>
        <time>2023-07-29T16:38:47.607Z</time>
      </trkpt>
      <trkpt lat="50.446292" lon="8.704858">
        <ele>148.327126</ele>
        <time>2023-07-29T16:39:24.105Z</time>
      </trkpt>
      <trkpt lat="50.446366" lon="8.704940">
        <ele>148.089286</ele>
        <time>2023-07-29T16:39:25.482Z</time>
      </trkpt>
      <trkpt lat="50.446329" lon="8.705018">
        <ele>147.926636</ele>
        <time>2023-07-29T16:39:27.132Z</time>
      </trkpt>
      <trkpt lat="50.446180" lon="8.705371">
        <ele>147.319372</ele>
        <time>2023-07-29T16:39:34.450Z</time>
      </trkpt>
      <trkpt lat="50.446099" lon="8.705499">
        <ele>147.189323</ele>
        <time>2023-07-29T16:39:37.664Z</time>
      </trkpt>
      <trkpt lat="50.446783" lon="8.706588">
        <ele>146.449210</ele>
        <time>2023-07-29T16:40:06.707Z</time>
      </trkpt>
      <trkpt lat="50.447066" lon="8.706916">
        <ele>146.516291</ele>
        <time>2023-07-29T16:40:18.583Z</time>
      </trkpt>
      <trkpt lat="50.447081" lon="8.706935">
        <ele>146.526663</ele>
        <time>2023-07-29T16:40:19.267Z</time>
      </trkpt>
      <trkpt lat="50.447294" lon="8.707208">
        <ele>146.676926</ele>
        <time>2023-07-29T16:40:28.850Z</time>
      </trkpt>
      <trkpt lat="50.447547" lon="8.707533">
        <ele>146.804220</ele>
        <time>2023-07-29T16:40:39.880Z</time>
      </trkpt>
      <trkpt lat="50.447943" lon="8.707895">
        <ele>147.002716</ele>
        <time>2023-07-29T16:40:55.082Z</time>
      </trkpt>
      <trkpt lat="50.447581" lon="8.708992">
        <ele>147.390674</ele>
        <time>2023-07-29T16:41:22.085Z</time>
      </trkpt>
      <trkpt lat="50.447562" lon="8.709157">
        <ele>147.443338</ele>
        <time>2023-07-29T16:41:25.751Z</time>
      </trkpt>
      <trkpt lat="50.447550" lon="8.709256">
        <ele>147.498571</ele>
        <time>2023-07-29T16:41:28.010Z</time>
      </trkpt>
      <trkpt lat="50.447879" lon="8.709455">
        <ele>147.805726</ele>
        <time>2023-07-29T16:41:40.852Z</time>
      </trkpt>
      <trkpt lat="50.448118" lon="8.709729">
        <ele>148.102792</ele>
        <time>2023-07-29T16:41:51.831Z</time>
      </trkpt>
      <trkpt lat="50.448595" lon="8.710826">
        <ele>149.003430</ele>
        <time>2023-07-29T16:42:23.097Z</time>
      </trkpt>
      <trkpt lat="50.448882" lon="8.711482">
        <ele>149.623843</ele>
        <time>2023-07-29T16:42:42.303Z</time>
      </trkpt>
      <trkpt lat="50.449587" lon="8.713597">
        <ele>152.005684</ele>
        <time>2023-07-29T16:43:42.411Z</time>
      </trkpt>
      <trkpt lat="50.449614" lon="8.713677">
        <ele>152.113190</ele>
        <time>2023-07-29T16:43:44.703Z</time>
      </trkpt>
      <trkpt lat="50.449981" lon="8.716211">
        <ele>155.290399</ele>
        <time>2023-07-29T16:44:53.083Z</time>
      </trkpt>
      <trkpt lat="50.450107" lon="8.717432">
        <ele>157.937539</ele>
        <time>2023-07-29T16:45:31.885Z</time>
      </trkpt>
      <trkpt lat="50.450449" lon="8.718079">
        <ele>159.030127</ele>
        <time>2023-07-29T16:45:54.692Z</time>
      </trkpt>
      <trkpt lat="50.450552" lon="8.718431">
        <ele>159.285564</ele>
        <time>2023-07-29T16:46:03.417Z</time>
      </trkpt>
      <trkpt lat="50.450012" lon="8.718595">
        <ele>159.543524</ele>
        <time>2023-07-29T16:46:22.583Z</time>
      </trkpt>
      <trkpt lat="50.450055" lon="8.718831">
        <ele>159.427182</ele>
        <time>2023-07-29T16:46:25.469Z</time>
      </trkpt>
      <trkpt lat="50.450230" lon="8.719148">
        <ele>159.276070</ele>
        <time>2023-07-29T16:46:30.875Z</time>
      </trkpt>
      <trkpt lat="50.450940" lon="8.721294">
        <ele>157.726325</ele>
        <time>2023-07-29T16:46:59.898Z</time>
      </trkpt>
      <trkpt lat="50.451340" lon="8.722730">
        <ele>159.427820</ele>
        <time>2023-07-29T16:47:29.886Z</time>
      </trkpt>
      <trkpt lat="50.451526" lon="8.723752">
        <ele>162.109425</ele>
        <time>2023-07-29T16:47:58.369Z</time>
      </trkpt>
      <trkpt lat="50.451608" lon="8.724501">
        <ele>164.136162</ele>
        <time>2023-07-29T16:48:18.860Z</time>
      </trkpt>
      <trkpt lat="50.451561" lon="8.724992">
        <ele>165.133925</ele>
        <time>2023-07-29T16:48:30.705Z</time>
      </trkpt>
      <trkpt lat="50.451526" lon="8.725927">
        <ele>166.068006</ele>
        <time>2023-07-29T16:48:48.530Z</time>
      </trkpt>
      <trkpt lat="50.451573" lon="8.726605">
        <ele>165.681861</ele>
        <time>2023-07-29T16:48:57.137Z</time>
      </trkpt>
      <trkpt lat="50.452017" lon="8.728359">
        <ele>161.747464</ele>
        <time>2023-07-29T16:49:16.541Z</time>
      </trkpt>
      <trkpt lat="50.452157" lon="8.729061">
        <ele>159.764081</ele>
        <time>2023-07-29T16:49:23.794Z</time>
      </trkpt>
      <trkpt lat="50.452262" lon="8.729985">
        <ele>157.986257</ele>
        <time>2023-07-29T16:49:33.625Z</time>
      </trkpt>
      <trkpt lat="50.452366" lon="8.730604">
        <ele>157.319588</ele>
        <time>2023-07-29T16:49:40.984Z</time>
      </trkpt>
      <trkpt lat="50.452361" lon="8.730829">
        <ele>157.152462</ele>
        <time>2023-07-29T16:49:43.433Z</time>
      </trkpt>
      <trkpt lat="50.452296" lon="8.730904">
        <ele>157.160157</ele>
        <time>2023-07-29T16:49:44.867Z</time>
      </trkpt>
      <trkpt lat="50.451476" lon="8.731329">
        <ele>157.645421</ele>
        <time>2023-07-29T16:50:04.158Z</time>
      </trkpt>
      <trkpt lat="50.451319" lon="8.731477">
        <ele>157.947639</ele>
        <time>2023-07-29T16:50:09.205Z</time>
      </trkpt>
      <trkpt lat="50.449853" lon="8.733203">
        <ele>163.304978</ele>
        <time>2023-07-29T16:51:10.934Z</time>
      </trkpt>
      <trkpt lat="50.449361" lon="8.733785">
        <ele>165.200270</ele>
        <time>2023-07-29T16:51:32.183Z</time>
      </trkpt>
      <trkpt lat="50.448229" lon="8.735055">
        <ele>169.477224</ele>
        <time>2023-07-29T16:52:20.630Z</time>
      </trkpt>
      <trkpt lat="50.446916" lon="8.736514">
        <ele>173.142558</ele>
        <time>2023-07-29T16:53:09.721Z</time>
      </trkpt>
      <trkpt lat="50.446757" lon="8.736640">
        <ele>173.344153</ele>
        <time>2023-07-29T16:53:14.419Z</time>
      </trkpt>
      <trkpt lat="50.444916" lon="8.738099">
        <ele>172.296352</ele>
        <time>2023-07-29T16:53:51.062Z</time>
      </trkpt>
      <trkpt lat="50.443877" lon="8.738798">
        <ele>171.579693</ele>
        <time>2023-07-29T16:54:11.028Z</time>
      </trkpt>
      <trkpt lat="50.442926" lon="8.739448">
        <ele>170.478026</ele>
        <time>2023-07-29T16:54:28.398Z</time>
      </trkpt>
      <trkpt lat="50.442792" lon="8.738871">
        <ele>169.877289</ele>
        <time>2023-07-29T16:54:34.759Z</time>
      </trkpt>
      <trkpt lat="50.442628" lon="8.737518">
        <ele>168.115811</ele>
        <time>2023-07-29T16:54:48.356Z</time>
      </trkpt>
      <trkpt lat="50.442481" lon="8.737183">
        <ele>167.272389</ele>
        <time>2023-07-29T16:54:52.045Z</time>
      </trkpt>
      <trkpt lat="50.442126" lon="8.736807">
        <ele>165.536254</ele>
        <time>2023-07-29T16:54:57.954Z</time>
      </trkpt>
      <trkpt lat="50.442121" lon="8.736808">
        <ele>165.513258</ele>
        <time>2023-07-29T16:54:58.017Z</time>
      </trkpt>
      <trkpt lat="50.441854" lon="8.736869">
        <ele>164.300750</ele>
        <time>2023-07-29T16:55:01.693Z</time>
      </trkpt>
      <trkpt lat="50.441582" lon="8.737121">
        <ele>162.877808</ele>
        <time>2023-07-29T16:55:05.950Z</time>
      </trkpt>
      <trkpt lat="50.441400" lon="8.737238">
        <ele>161.910360</ele>
        <time>2023-07-29T16:55:08.587Z</time>
      </trkpt>
      <trkpt lat="50.441294" lon="8.737238">
        <ele>161.383482</ele>
        <time>2023-07-29T16:55:09.995Z</time>
      </trkpt>
      <trkpt lat="50.441055" lon="8.737100">
        <ele>160.108053</ele>
        <time>2023-07-29T16:55:13.382Z</time>
      </trkpt>
      <trkpt lat="50.440631" lon="8.736616">
        <ele>157.520097</ele>
        <time>2023-07-29T16:55:20.376Z</time>
      </trkpt>
      <trkpt lat="50.439836" lon="8.735345">
        <ele>152.529902</ele>
        <time>2023-07-29T16:55:35.862Z</time>
      </trkpt>
      <trkpt lat="50.439262" lon="8.734339">
        <ele>149.564022</ele>
        <time>2023-07-29T16:55:48.050Z</time>
      </trkpt>
      <trkpt lat="50.439202" lon="8.734231">
        <ele>149.333901</ele>
        <time>2023-07-29T16:55:49.438Z</time>
      </trkpt>
      <trkpt lat="50.438857" lon="8.733590">
        <ele>148.532974</ele>
        <time>2023-07-29T16:55:58.001Z</time>
      </trkpt>
      <trkpt lat="50.438397" lon="8.732464">
        <ele>149.054541</ele>
        <time>2023-07-29T16:56:17.156Z</time>
      </trkpt>
      <trkpt lat="50.438322" lon="8.732319">
        <ele>149.217668</ele>
        <time>2023-07-29T16:56:20.520Z</time>
      </trkpt>
      <trkpt lat="50.438187" lon="8.732187">
        <ele>149.529127</ele>
        <time>2023-07-29T16:56:24.928Z</time>
      </trkpt>
      <trkpt lat="50.437936" lon="8.732181">
        <ele>150.182794</ele>
        <time>2023-07-29T16:56:32.751Z</time>
      </trkpt>
      <trkpt lat="50.436911" lon="8.732475">
        <ele>154.274685</ele>
        <time>2023-07-29T16:57:13.759Z</time>
      </trkpt>
      <trkpt lat="50.436131" lon="8.732681">
        <ele>157.125333</ele>
        <time>2023-07-29T16:57:43.534Z</time>
      </trkpt>
      <trkpt lat="50.435529" lon="8.732812">
        <ele>158.245006</ele>
        <time>2023-07-29T16:58:00.749Z</time>
      </trkpt>
      <trkpt lat="50.435165" lon="8.732845">
        <ele>158.536887</ele>
        <time>2023-07-29T16:58:08.990Z</time>
      </trkpt>
      <trkpt lat="50.434331" lon="8.732850">
        <ele>158.156014</ele>
        <time>2023-07-29T16:58:23.988Z</time>
      </trkpt>
      <trkpt lat="50.433987" lon="8.733033">
        <ele>157.670059</ele>
        <time>2023-07-29T16:58:29.798Z</time>
      </trkpt>
      <trkpt lat="50.432017" lon="8.733195">
        <ele>156.854344</ele>
        <time>2023-07-29T16:59:05.491Z</time>
      </trkpt>
      <trkpt lat="50.431704" lon="8.733650">
        <ele>157.081469</ele>
        <time>2023-07-29T16:59:15.212Z</time>
      </trkpt>
      <trkpt lat="50.431429" lon="8.734061">
        <ele>157.172008</ele>
        <time>2023-07-29T16:59:22.812Z</time>
      </trkpt>
      <trkpt lat="50.430915" lon="8.734740">
        <ele>156.871612</ele>
        <time>2023-07-29T16:59:34.892Z</time>
      </trkpt>
      <trkpt lat="50.430717" lon="8.735189">
        <ele>156.445904</ele>
        <time>2023-07-29T16:59:40.625Z</time>
      </trkpt>
      <trkpt lat="50.430622" lon="8.735206">
        <ele>156.279241</ele>
        <time>2023-07-29T16:59:42.139Z</time>
      </trkpt>
      <trkpt lat="50.430444" lon="8.735166">
        <ele>155.857831</ele>
        <time>2023-07-29T16:59:44.900Z</time>
      </trkpt>
      <trkpt lat="50.430261" lon="8.734938">
        <ele>155.211662</ele>
        <time>2023-07-29T16:59:48.284Z</time>
      </trkpt>
      <trkpt lat="50.430208" lon="8.734915">
        <ele>155.051699</ele>
        <time>2023-07-29T16:59:49.085Z</time>
      </trkpt>
      <trkpt lat="50.430104" lon="8.734960">
        <ele>154.753865</ele>
        <time>2023-07-29T16:59:50.694Z</time>
      </trkpt>
      <trkpt lat="50.429875" lon="8.735250">
        <ele>153.900077</ele>
        <time>2023-07-29T16:59:54.967Z</time>
      </trkpt>
      <trkpt lat="50.429823" lon="8.735007">
        <ele>153.424688</ele>
        <time>2023-07-29T16:59:57.356Z</time>
      </trkpt>
      <trkpt lat="50.429668" lon="8.734828">
        <ele>152.881408</ele>
        <time>2023-07-29T17:00:00.162Z</time>
      </trkpt>
      <trkpt lat="50.429394" lon="8.735217">
        <ele>151.810102</ele>
        <time>2023-07-29T17:00:05.589Z</time>
      </trkpt>
      <trkpt lat="50.429345" lon="8.735222">
        <ele>151.757335</ele>
        <time>2023-07-29T17:00:06.312Z</time>
      </trkpt>
      <trkpt lat="50.429293" lon="8.735228">
        <ele>151.757335</ele>
        <time>2023-07-29T17:00:07.072Z</time>
      </trkpt>
      <trkpt lat="50.429177" lon="8.735023">
        <ele>151.757335</ele>
        <time>2023-07-29T17:00:09.622Z</time>
      </trkpt>
    </trkseg>
  </trk>
</gpx>